latitude,longitude,name,street address,tel
0.919361,110.540904,KLINIK KESIHATAN BUNAN GEGA,"Kampung Bunan Gega, 94750 Tebakang, Serian, Sarawak",082-895497
1.018313,111.554108,KLINIK KESIHATAN BATU LINTANG,"Kampung Batu Lintang (D/A Peg. Kesihatan Bahagian Sri Aman, Jalan Hospital), 95007 Sri Aman, Sri Aman, Sarawak",083-418347
1.022010,110.360910,KLINIK KESIHATAN TEBEDU,"Pekan Tebedu, 94750 Tebedu, Serian, Sarawak",082-797219
1.041780,111.836100,KLINIK KESIHATAN LUBOK ANTU,"Pekan Lubok Antu (D/A Peg. Kesihatan Bahagian Sri Aman, Jalan Hospital), 95007 Sri Aman, Lubok Antu, Sarawak",083-584105
1.051200,110.753100,KLINIK KESIHATAN BALAI RINGIN,"Kampung Ringin, 94700 Serian, Serian, Sarawak",082-877329
1.097088,110.502663,KLINIK KESIHATAN TEBAKANG,"Kampung Tekabang, 94750 Tekabang, Serian, Sarawak",082-875625
1.124570,110.625870,KLINIK KESIHATAN TRIBOH,"Kampung Triboh, 94700 Serian, Serian, Sarawak",082-870321
1.125829,111.861593,KLINIK KESIHATAN BATANG AI,"Batang Ai (D/A Peg. Kesihatan Bahagian Sri Aman Jalan Hospital), 95007 Sri Aman, Lubok Antu, Sarawak",083-322072
1.137979,111.638972,KLINIK KESIHATAN ENGKILILI,"Pekan Engkilili (D/A Peg. Kesihatan Bahagian Sri Aman, Jalan Hospital), 95007 Sri Aman, Lubok Antu, Sarawak",083-563004
1.142232,111.117207,KLINIK KESIHATAN PANTU,"Pekan Pantu (D/A Peg. Kesihatan Bahagian Sri Aman, Jalan Hospital), 95007 Sri Aman, Sri Aman, Sarawak",083-545228
1.159501,110.896675,KLINIK KESIHATAN KESINDU,"Kampung Kesindu, 94800 Kota Samarahan, Simunjan, Sarawak",082-896939
1.162600,110.259540,KLINIK KESIHATAN PADAWAN,"Jalan Puncak Borneo, 93250 Kuching, Kuching, Sarawak",082-617687/ 011-2108
1.176364,110.564067,KLINIK KESIHATAN PANGKALAN AMO,"Kampung Pengkalan Amo (D/A Pen. Peg. Perubatan Kanan, Hospital Serian, Jalan Serian Bypass), 94700 Serian, Serian, Sarawak",013-2680129
1.178780,111.751213,KLINIK KESIHATAN MERINDUN,"Merindun (D/A Peg. Kesihatan Bahagian Sri Aman, Jalan Hospital), 95007 Sri Aman, Lubok Antu, Sarawak",083-563474
1.207677,110.369081,KLINIK KESIHATAN TENG BUKAP,"Teng Bukap, KM 15 Jln Padawan, 93150 Kuching, Kuching, Sarawak",082-750530/ 011-2171
1.209143,110.530882,KLINIK KESIHATAN TARAT,"Pekan Tarat, 94700 Serian, Serian, Sarawak",082-876591
1.224768,112.018440,KLINIK KESIHATAN NANGA DELOK,"Nanga Delok, 95007 Sri Aman, Sri Aman, Sarawak",083-322176/ 083-3220
1.229621,111.783169,KLINIK KESIHATAN NANGA KESIT,"Nangka Kesit (D/A Peg. Kesihatan Bahagian Sri Aman Jalan Hospital), 95007 Sri Aman, Lubok Antu, Sarawak",011-221154
1.233230,111.462550,KLINIK KESIHATAN SRI AMAN,"Sri Aman, Jalan Hospital (D/A Peg. Kesihatan Bahagian Sri Aman, Jalan Hospital), 95007 Sri Aman, Sri Aman, Sarawak",083-327769
1.235412,110.691324,KLINIK KESIHATAN GEDONG,"Kampung Gedong, 94300 Kota Samarahan, Simunjan, Sarawak",082-781499
1.237969,110.910386,KLINIK KESIHATAN MUNGGU LALLANG,"Kampung Munggu Lallang, 94300 Kota Samarahan, Simunjan, Sarawak",082-895498
1.266167,111.027694,KLINIK KESIHATAN MENTU,"Kampung Mentu, 94300 Kota Samarahan, Simunjan, Sarawak",011-221276
1.280156,111.624530,KLINIK KESIHATAN SKRANG,"Kampung Skrang (D/A Peg. Kesihatan Bahagian Sri Aman, Jalan Hospital), 95007 Sri Aman, Sri Aman, Sarawak",011-9384832
1.303094,103.488896,KLINIK KESIHATAN SERKAT,"Jalan Serkat, 82030 Pontian, Pontian, Johor",07-6960359
1.303778,111.392637,KLINIK KESIHATAN TANJUNG BIJAT,"Kampung Tanjung Bilat, (D/A Peg. Kesihatan Bahagian Sri Aman, Jalan Hospital), 95007 Sri Aman, Sri Aman, Sarawak",083-309476
1.312990,111.943520,KLINIK KESIHATAN NANGA STAMANG,"Nanga Stamang (D/A Peg. Kesihatan Bahagian Sri Aman, Tingkat 3 Wisma Persekutuan, Jalan Hospital), 95007 Sri Aman, Sri Aman, Sarawak",083-322176
1.316243,110.286048,KLINIK KESIHATAN BUNUK,"Jalan Puncak Borneo, 93250 Kuching, Kuching, Sarawak",082-765963
1.329550,111.654110,KLINIK KESIHATAN NANGA LAWIH (MUJAU),"Nanga Lawih (D/A Pegawai Kesihatan Bahagian Betong), 95700 Betong, Betong, Sarawak",083-775503
1.335922,111.832770,KLINIK KESIHATAN NANGA PATOH,"Nanga Patoh (D/A Peg. Kesihatan Bahagian Sri Aman, Jalan Hospital), 95007 Sri Aman, Lubok Antu, Sarawak",083-432006
1.345330,110.538549,KLINIK KESIHATAN ENSENGEI,"Kampung Ensengei, 94700 Serian, Serian, Sarawak",082-895401
1.350095,104.223969,KLINIK KESIHATAN RENGIT,"TLO 52, Jalan Besar Rengit, 83500 Rengit, Batu Pahat, Johor",07-4241224
1.350100,104.223970,KLINIK KESIHATAN SUNGAI RENGIT,"Felda Bukit Waha, 81900 Tanjung Surat, Kota Tinggi, Johor",07-826 3285
1.352710,111.167600,KLINIK KESIHATAN LINGGA,"Kampung Lingga (D/A Peg. Kesihatan Bahagian, Bahagian Sri Aman Jalan Hospital, Sri Aman), 95007 Sri Aman, Sri Aman, Sarawak",083-496223
1.360840,110.404740,KLINIK KESIHATAN SIBURAN,"KM 27, Jalan Kuching/Serian, 93250 Kuching, Kuching, Sarawak",082-864202
1.365000,104.109440,KLINIK KESIHATAN PENGERANG,"Felda Lok Heng, 81900 Tanjung Surat, Kota Tinggi, Johor",07-8252455
1.365973,110.117797,KLINIK KESIHATAN KROKONG,"Jalan Bau Serikin, Kampung Krokong (D/A Pejabat Kesihatan Bahagian Kuching, Jln Tun Ahmad Zaidi Adruce), 94000 Bau, Bau, Sarawak",082-763116
1.378100,110.045720,KLINIK KESIHATAN SERASOT,"Kampung Serasot (D/A Peg. Kesihatan Bahagian Kuching Jalan Tun Ahmad Zaidi Adruce), 93250 Bau, Bau, Sarawak",082-371036
1.379188,103.589448,KLINIK KESIHATAN PAYA MENGKUANG,"JKR 4091 Jln Kelasi, Desa Paya Mengkuang, 81560 Gelang Patah, Johor Bahru, Johor",07-5080015
1.379300,103.441750,KLINIK KESIHATAN PENEROK,"Jln Kukup , 82300 Air Masin, Pontian, Johor",07-6960311
1.447719,103.590287,KLINIK KESIHATAN GELANG PATAH,"JKR 4176 Jalan Besar, 81550 Gelang Patah, Johor Bahru, Johor",07-5101252
1.453404,111.481332,KLINIK KESIHATAN SPAOH,"Kampung Spaoh, 95600 Spaoh, Betong, Sarawak",083-473339
1.456500,111.790157,KLINIK KESIHATAN NANGA ENTALAU,"Kampung Nanga Entalau (D/A Peg. Kesihatan Bahagian Sri Aman Jalan Hospital) , 95007 Sri Aman, Sri Aman, Sarawak",083-432009/ 083-3221
1.457880,110.489150,KLINIK KESIHATAN KOTA SAMARAHAN,"Jalan Datuk Muhamad Musa, 94300 Kota Samarahan, Samarahan, Sarawak",082-673626
1.462470,103.748420,KLINIK KESIHATAN MAHMOODIAH,"JKR 6274, Jalan Mahmoodiah, 80100 Johor Bahru, Johor Bahru, Johor",07-2266166
1.463943,103.906293,KLINIK KESIHATAN PASIR GUDANG,"JKR 5376, Jalan Kejiranan 8/1, 81700 Pasir Gudang, Johor Bahru, Johor",07-2510594
1.464260,110.333800,KLINIK KESIHATAN KOTA SENTOSA,"Kota Sentosa, Jalan Stakan, 93250 Kuching, Kuching, Sarawak",082-626080/ 082-6260
1.479973,104.181573,KLINIK KESIHATAN SENING,"Felda Sg Mas, 81900 Tanjung Surat, Kota Tinggi, Johor",07-8277398
1.488750,103.771230,KLINIK KESIHATAN TEBRAU,"JKR 5409,5410,5413, Jalan Kerambit, 80050 Johor Bahru, Johor Bahru, Johor",07-3342067
1.489205,103.885109,KLINIK KESIHATAN MASAI,"Lot 2188, Jalan Pekeliling, 81750 Masai, Johor Bahru, Johor",07-2511882
1.492666,110.170873,KLINIK KESIHATAN SINGAI,"Jalan Kawah, Kampung Singai (D/A  Peg. Kesihatan Bahagian Kuching, Jalan Tun Ahmad Zaidi Adruce), 93250 Bau, Bau, Sarawak",018-2110499
1.492824,103.705879,KLINIK KESIHATAN TAMPOI,"JKR 3769-1, Batu 5, Jalan Skudai, 81200 Johor Bahru, Johor Bahru, Johor",07-2361030
1.496965,103.748751,KLINIK KESIHATAN LARKIN,"PTD 4999, Jalan Sentosa, 80350 Johor Bahru, Johor Bahru, Johor",07-2233249
1.501110,103.383333,KLINIK KESIHATAN PONTIAN ,"Lot 8695, Jalan Alsagoff, 82000 Pontian, Pontian, Johor",07-6868211
1.508123,103.707381,KLINIK KESIHATAN KEMPAS,"JKR 6044, Jalan Persiaran Tanjung, 81200 Johor Bahru, Johor Bahru, Johor",07-2382060
1.508300,103.512150,KLINIK KESIHATAN PEKAN NANAS,"Jalan Pekan Nanas, 81500 Pengkalan Raja, Pontian, Johor",07-6994352
1.511020,110.270610,KLINIK KESIHATAN BATU KAWA,"Jalan Eng Sing, Off Jalan Stapok, 93250 Batu Kawa, Kuching, Sarawak",082-688518
1.514350,103.757500,KLINIK KESIHATAN MAJIDEE,"JKR 5909/D Jln Sekolah Kg Melayu Majidee, 81100 Johor Bahru, Johor Bahru, Johor",07-3323535
1.515457,110.740089,KLINIK KESIHATAN SADONG JAYA,"Kampung Sadong Jaya, 94600 Asajaya, Asajaya, Sarawak",082-821248
1.520665,110.934435,KLINIK KESIHATAN SEBUYAU,"Pekan Sebuyau (D/A Pegawai Kesihatan Bahagian Samarahan, Jalan Datuk Muhamad Musa), 94300 Kota Samarahan, Simunjan, Sarawak",083-467126
1.525611,103.666933,KLINIK KESIHATAN TAMAN UNGKU TUN AMINAH,"Lot 9, 11, 15, 17 Jln Sri Orkid 36. Taman Sri Orkid, 81300 Johor Bahru, Johor Bahru, Johor",07-5113727
1.530564,103.931425,KLINIK KESIHATAN CAHAYA BARU,"JKR 2116 Jalan Perak, Felda Cahaya Baru, 81750 Masai, Johor Bahru, Johor",07-2612346
1.536026,110.336573,KLINIK KESIHATAN TG. EMBANG,"Kampung Tanjung Embang (D/A Peg. Kesihatan Bahagian Kuching, Jln Tun Ahmad Zaidi Adruce), 93150 Kuching, Kuching, Sarawak",082-257867
1.537953,103.626726,KLINIK KESIHATAN TAMAN UNIVERSITI,"Jalan Kebudayaan 28, Taman Universiti, 81300 Johor Bahru, Johor Bahru, Johor",07-5216800
1.540110,111.347640,KLINIK KESIHATAN TUIE,"Kampung Tuie, Pusa, Saribas, 95500 Debak, Betong, Sarawak",083-569508
1.544150,110.607330,KLINIK KESIHATAN ASAJAYA,"Kampung Asajaya, 94600 Asajaya, Asajaya, Sarawak",082-827080
1.547898,103.790287,KLINIK KESIHATAN SULTAN ISMAIL,"Jalan Persiaran Mutiara Emas Utama, Taman Mount Austin, 81100 Johor Bahru, Johor Bahru, Johor",07-3577121
1.551387,110.380385,KLINIK KESIHATAN TANAH PUTEH,"Tanah Puteh, Jalan Pending, Kuching (Pegawai Perubatan Y/M, KK Tanah Puteh, Jln Pending, Kuching), 93450 Kuching, Kuching, Sarawak",082-344011/ 082-4825
1.551713,110.691588,KLINIK KESIHATAN JEMUKAN,"Kampung Jemukan, 94600 Asajaya, Asajaya, Sarawak",082-827604
1.551736,110.672908,KLINIK KESIHATAN SEMERA,"Kampunga Samera, 94600 Asajaya, Asajaya, Sarawak",082-826372
1.555327,104.240174,KLINIK KESIHATAN BANDAR PENAWAR,"Lot 758, Jalan Ar-Raudah, 81900 Tanjung Surat, Kota Tinggi, Johor",07-8221064
1.557219,110.342823,KLINIK KESIHATAN JALAN MASJID ,"Jalan Masjid, 93400 Kuching, Kuching, Sarawak",082-427110/ 082-4150
1.557734,110.774190,KLINIK KESIHATAN SEBANGAN,"Pekan Sebangan, 94300 Kota Samarahan, Simunjan, Sarawak",083-468337
1.558990,103.401540,KLINIK KESIHATAN KAYU ARA PASONG,"Jln Kayu Ara Pasong, 82010 Api-Api, Pontian, Johor",07-6951355
1.564400,111.423770,KLINIK KESIHATAN DEBAK,"Debak, Saribas, 95500 Debak, Betong, Sarawak",083-464570
1.572737,110.543587,KLINIK KESIHATAN SAMBIR,"Kampung Sambir, 94300 Kota Samarahan, Samarahan, Sarawak",082-436384
1.581368,111.464852,KLINIK KESIHATAN ULU TERU,"Ulu Teru (D/A Peg. Kesihatan Daerah Baram, Jalan Hospital), 98050 Baram, Marudi, Sarawak",013-2865607
1.592090,103.331290,KLINIK KESIHATAN AYER BALOI,"Jalan Ayer Baloi, 82100 Pontian, Pontian, Johor",07-6931213
1.596701,103.820655,KLINIK KESIHATAN ULU TIRAM,"JKR 2156, Jln Besar Ulu Tiram, 81800 Johor Bahru, Johor Bahru, Johor",07-8611902
1.606242,104.088237,KLINIK KESIHATAN AIR TAWAR 5 (FELDA),"Felda Air Tawar 5, 81900 Tanjung Surat, Kota Tinggi, Johor",07-8952872
1.608150,111.697550,KLINIK KESIHATAN NANGA TIGA,"Kampung Ng Tiga, 95700 Betong, Betong, Sarawak",084-775504
1.610960,111.289860,KLINIK KESIHATAN PUSA,"Pekan Pusa, 94950 Pusa, Betong, Sarawak",083-465155
1.611851,104.153978,KLINIK KESIHATAN BANDAR MAS,"Lot 4106, Jalan Tun Habab, 81900 Tanjung Surat, Kota Tinggi, Johor",07-8236155
1.618960,109.681340,KLINIK KESIHATAN BIAWAK,"Kampung Biawak (D/A Pegawai Kesihatan Daerah Lundu, Jalan Lundu/ Sekambal), 94500 Lundu, Lundu, Sarawak",082-322977
1.638370,111.204250,KLINIK KESIHATAN BELADIN,"Beladin, Saribas, 94950 Pusa, Betong, Sarawak",083-406448
1.640890,103.621652,KLINIK KESIHATAN KULAI,"Lot 5264, Jalan Pejabat Kesihatan, 81000 Senai, Kulai Jaya, Johor",07-6625255
1.645700,103.258440,KLINIK KESIHATAN BENUT,"Jalan Jaafar, 82200 Benut, Pontian, Johor",07-6903633
1.655536,103.607151,KLINIK KESIHATAN KULAI BESAR,"Lot 6221, Batu 19 Jalan Air Hitam, 81000 Senai, Kulai Jaya, Johor",07-6622403
1.659020,110.437890,KLINIK KESIHATAN BAKO,"Jalan Bako, Kampung Bako (D/A Peg. Kesihatan Bahagian Kuching, Jalan Tun Ahmad Zaidi Adruce), 93150 Bako, Kuching, Sarawak",082-475967/ 082-4313
1.659799,111.034730,KLINIK KESIHATAN MELUDAM,"Meludam, 94850 Saribas, Betong, Sarawak",083-408212
1.663210,112.035030,KLINIK KESIHATAN NANGA ENSIRING,"Kampung Ensiring (Pen. Peg. Perubatan Y/M, KK Julau, Julau), 96600 Julau, Julau, Sarawak",084-775505
1.674260,110.208590,KLINIK KESIHATAN TELAGA AIR,"Jalan Matang, Kampung Telaga Air (D/A Peg. Kesihatan Bahagian Kuching, Jln Tun Ahmad Zaidi Adruce, Kuching), 93150 Kuching, Kuching, Sarawak",082-843200
1.678369,104.021627,KLINIK KESIHATAN AIR TAWAR 2,"Lot 1046, Jalan Pasar, Sg Rengit, 81900 Kota Tinggi, Kota Tinggi, Johor",07-8932207
1.681967,111.102466,KLINIK KESIHATAN SEMARANG,"Pekan Semarang, 94950 Pusa, Betong, Sarawak",083-468007
1.686720,110.013990,KLINIK KESIHATAN SAMPADI,"Kampung Sampadi (D/A Peg. Kesihatan Daerah Lundu, Jln Lundu/Sekambal), 94500 Lundu, Lundu, Sarawak",082-378300
1.689770,111.762320,KLINIK KESIHATAN NANGA ENTAIH,"Kampung Entaih, 96510 Pakan, Pakan, Sarawak",084-775501
1.692052,110.099584,KLINIK KESIHATAN STOH RAMBUNGAN,"Kampung Rambungan (D/A  Peg. Kesihatan Bahagian Lundu, Jalan Lundu/ Sekambal), 94500 Lundu, Lundu, Sarawak",082-657407
1.700560,103.288050,KLINIK KESIHATAN PARIT ISMAIL,"Jln Parit Ismail, 82200 Benut, Pontian, Johor",07-6903671
1.701720,110.370320,KLINIK KESIHATAN BUNTAL,"Jalan Tengah, 93050 Kuching, Kuching, Sarawak",082-846493
1.706113,112.380855,KLINIK KESIHATAN CHEMENONG,"Kampung Chemenong, 96850 Song, Song, Sarawak",084-4774100
1.710363,112.552909,KLINIK KESIHATAN NANGA ENGKUAH,"Kampung Engkuah, 96850 Song, Song, Sarawak",084-777333
1.718688,110.315037,KLINIK KESIHATAN SANTUBONG,"Jalan Sultan Tengah, 93050 Kuching, Kuching, Sarawak",082-846439
1.733468,103.188941,KLINIK KESIHATAN SRI MERLONG,"Lot 5086, Kampung Sri Merlong, 83100 Sungai Kluang, Batu Pahat, Johor",07-4258511
1.739970,112.033090,KLINIK KESIHATAN MAONG (MUJOK),"Kampung Maong, 96600 Julau, Julau, Sarawak",084-734253
1.741120,103.897850,KLINIK KESIHATAN LOK HENG,"Lot 2548, Felda Air Tawar 2, 81900 Ulu Sungai Johor, Kota Tinggi, Johor",07-8947188
1.749411,103.045797,KLINIK KESIHATAN SENGGARANG,"Lot 6700, Jalan Besar Senggarang, 83200 Minyak Beku, Batu Pahat, Johor",07-4291015
1.752130,104.073890,KLINIK KESIHATAN BUKIT WAHA,"PTD 206, Jalan Pembangunan, Bandar Penawar, 81900 Ulu Sungai Johor, Kota Tinggi, Johor",07-8925598
1.761350,111.507430,KLINIK KESIHATAN NANGA BUDU,"Kampung Nanga Budu, 95400 Kalaka, Saratok, Sarawak",083-589300
1.768280,103.706770,KLINIK KESIHATAN BUKIT BESAR,"PTD 568, Felda Bukit Besar, Jalan Depan Sekolah, 81900 Ulu Sungai Johor, Kota Tinggi, Johor",07-8977255
1.770720,112.638170,KLINIK KESIHATAN NANGA BANGKIT,"Kampung Nanga Bangkit, 96850 Song, Song, Sarawak",084-777333
1.792228,111.921208,KLINIK KESIHATAN NANGA ENTABAI,"Kampung Nanga Entabai, 96600 Julau, Julau, Sarawak",084-721005
1.808330,111.118640,KLINIK KESIHATAN KABONG,"Kabong, 94650 Betong, Saratok, Sarawak",083-411211
1.808979,109.776255,KLINIK KESIHATAN SEMATAN,"Jalan Sungai Kilang, Sematan, 94100 Lundu, Lundu, Sarawak",082-711340
1.818464,103.473491,KLINIK KESIHATAN LAYANG-LAYANG,"PTD 3578, Jalan Pejabat Pos, 81850 Layang-layang, 81850 Kluang, Kluang, Johor",07-7527233
1.822061,113.680009,KLINIK KESIHATAN NANGA ENTAWAU,"Kampung Entawau (D/A Peg. Kesihatan Bahagian Kapit, Wisma Persekutuan), 96800 Kapit, Kapit, Sarawak",084-796404
1.826130,103.305220,KLINIK KESIHATAN SIMPANG RENGGAM,"Lot 1794, Jln Rambutan, 86200 Simpang Renggam, Kluang, Johor",07-7554143
1.835520,111.615930,KLINIK KESIHATAN NANGA WAK,"Kampung Wak, 96150 Pakan, Pakan, Sarawak",083-434008
1.842088,111.413911,KLINIK KESIHATAN NANGA ATOI,"Kampung Nanga Atoi, 95400 Kalaka, Saratok, Sarawak",083-567400
1.848390,113.574770,KLINIK KESIHATAN NANGA MERIRAI,"Kampung Nanga Merirai (D/A Peg. Kesihatan Bahagian Kapit, Wisma Persekutuan), 96800 Kapit, Kapit, Sarawak",084-796404
1.849188,102.855339,KLINIK KESIHATAN BAGAN,"MLO 091, Pekan Parit Besar Bagan, 83000 Bagan, Batu Pahat, Johor",07-4138107
1.850100,102.942000,KLINIK KESIHATAN BATU PAHAT,"PTD 6625, Jalan Kluang, 83000 Simpang Kanan, Batu Pahat, Johor",07-4343355
1.854231,103.027944,KLINIK KESIHATAN SRI GADING,"Lot 5360, Sri Gading, Jalan Kluang, 83000 Simpang Kanan, Batu Pahat, Johor",07-4558216
1.856020,102.943010,KLINIK KESIHATAN PESTA,"PTD 13591, Kampung Kenang-Kenangan Dato' Onn, Jalan Perak, 83000 Simpang Kanan, Batu Pahat, Johor",07-4343355
1.859600,112.306010,KLINIK KESIHATAN NANGA JAGAU,"Kampung Nanga Jagau (D/A Peg. Kesihatan Daerah Kanowit), 96700 Kanowit, Kanowit, Sarawak",013-2865112
1.863300,103.622920,KLINIK KESIHATAN BANDAR TENGGARA,"PTB 496, Jln Tun Abd Majid, 81900 Panti, Kota Tinggi, Johor",07-8966178
1.863694,103.109590,KLINIK KESIHATAN PARIT RAJA,"MLO 261, Jalan Besar Air Hitam, 86400 Sri Gading, Batu Pahat, Johor",07-4541237
1.881280,111.309680,KLINIK KESIHATAN ROBAN,"Pekan Kechil Roban, 95300 Kalaka, Saratok, Sarawak",083-427244
1.881430,102.784930,KLINIK KESIHATAN SEMERAH,"Jalan Muar Semerah, 83000 Mukim 1 Lubok, Batu Pahat, Johor",07-4162685
1.883330,103.396390,KLINIK KESIHATAN RENGGAM,"PTD 2495, Jalan Simpang Renggam, 86300 Renggam, Kluang, Johor",07-7535255
1.883587,113.448278,KLINIK KESIHATAN NANGA GAAT,"Kampung Nanga Gaat (D/A Peg. Kesihatan Bahagian Kapit, Wisma Persekutuan), 96800 Kapit, Kapit, Sarawak",084-796404
1.886360,111.676500,KLINIK KESIHATAN PAKAN,"Pekan Pakan, 96150 Pakan, Pakan, Sarawak",084-719226
1.896308,102.760324,KLINIK KESIHATAN PARIT YUSOF,"Lot 24, Jalan Temenggung Ahmad, 84150 Parit Jawa, Muar, Johor",06-4161277
1.901057,112.573331,KLINIK KESIHATAN NANGA TEKALIT,"Nanga Tekalit, 96850 Kapit, Song, Sarawak",084-772001
1.903850,111.850420,KLINIK KESIHATAN SEKALONG,"Kampung Sekalong, 96600 Julau, Julau, Sarawak",084-738900
1.909484,102.952112,KLINIK KESIHATAN TONGKANG PECAH,"PTD 1921, Jalan Besar Tongkang Pecah, 97000 Linau, Batu Pahat, Johor",07-4152091
1.910030,102.687040,KLINIK KESIHATAN SRI MENANTI,"Sri Menanti, 71550 Sri Menanti, Kuala Pilah, Negeri Sembilan",06-4979581
1.910041,102.687046,KLINIK KESIHATAN SRI MENANTI,"Lot, 3692, Jalan Muar ke Batu Pahat, 84160 Sri Menanti, Muar, Johor",06-9881059
1.916160,111.737390,KLINIK KESIHATAN NANGA KARA,"Kampung Nanga Kara, 96150 Pakan, Pakan, Sarawak",084-775502
1.925390,104.108830,KLINIK KESIHATAN TANJONG SEDILI,"Felda Sening, 81900 Kambu, Kota Tinggi, Johor",07-8918370
1.925772,103.177460,KLINIK KESIHATAN AYER HITAM,"PTD 5728, Jln Besar ke Yong Peng, 83000 Sri Gading, Batu Pahat, Johor",07-7581966
1.926000,104.121230,KLINIK KESIHATAN SEDILI BESAR,"Lot 218, Jalan Hj Md Lazim, 81900 Kambu, Kota Tinggi, Johor",07-8899870
1.936950,111.181900,KLINIK KESIHATAN NYABOR,"Kampung Nyabor, Roban, 95300 Kalaka, Saratok, Sarawak",083-411068/ 083-3263
1.947280,103.475020,KLINIK KESIHATAN ULU BELITONG,"Jalan Cemara, 86007 Simpang Renggam, Kluang, Johor",07-7863333
1.957593,103.027664,KLINIK KESIHATAN PARIT YAANI,"Lot 9167, Pekan Parit Yaani, 83710 Mukim 7, Batu Pahat, Johor",07-4846521
1.960530,111.782730,KLINIK KESIHATAN LASSI,"Kampung Lassi, 96600 Julau, Julau, Sarawak",084-734253
1.961045,102.642264,KLINIK KESIHATAN PARIT JAWA,"Lot 241, Jalan Muar ke Batu Pahat, 83500 Sungai Balang, Muar, Johor",07-4164277
1.975441,112.929397,KLINIK KESIHATAN NANGA MELINAU,"Nanga Melinau, Sungai Mujong (D/A Peg. Kesihatan Bahagian Kapit, Wisma Persekutuan), 96800 Kapit, Kapit, Sarawak",084-796404
1.977011,102.881409,KLINIK KESIHATAN PARIT SULONG,"Lot 608, Pekan Parit Sulong, 83500 Simpang Kiri, Batu Pahat, Johor",07-4186204
1.981760,113.105700,KLINIK KESIHATAN NANGA BENA,"Jalan Sungai Bena, Rumah Panjang (D/A Peg. Kesihatan Bahagian Kapit, Wisma Persekutuan), 96800 Kapit, Kapit, Sarawak",084-796404
1.985030,112.403180,KLINIK KESIHATAN NGUNGUN,"Kampung Ngungun (D/A Peg. Kesihatan Daerah Kanowit), 96700 Kanowit, Kanowit, Sarawak",013-2865113
1.987800,102.961490,KLINIK KESIHATAN SRI MEDAN,"Lot 5660, Pekan Sri Medan, 83400 Mukim 18, Batu Pahat, Johor",07-4850272
1.999948,102.608467,KLINIK KESIHATAN PARIT BAKAR,"Lot 2355, Jalan Muar ke Pagoh, 84300 Jorak, Muar, Johor",06-9811324
2.006980,103.322250,KLINIK KESIHATAN MENGKIBOL,"Lot 18993, Jln Mengkibol, 86000 Kluang, Kluang, Johor",07-7765343
2.008428,112.549778,KLINIK KESIHATAN SONG,"Pekan Kecil Song, 96850 Song, Song, Sarawak",084-777333
2.008469,103.054958,KLINIK KESIHATAN YONG PENG,"Lot 8905, Jalan Besar Yong Peng, 87000 Semerong, Batu Pahat, Johor",07-4671361
2.011244,112.705028,KLINIK KESIHATAN NANGA IBAU,"Kampung Nanga Ibau, Sungai Batang Rajang (D/A Peg. Kesihatan Bahagian, Bahaigan Kapit, Wisma Persekutuan, Kapit), 96800 Kapit, Kapit, Sarawak",084-796454
2.011640,112.928960,KLINIK KESIHATAN KAPIT,"Jalan Bleteh, 96800 Kapit, Kapit, Sarawak",084-799661
2.014940,112.020130,KLINIK KESIHATAN MACHAN,"Pekan Machan (D/A Peg. Kesihatan Daerah Kanowit), 96700 Kanowit, Kanowit, Sarawak",084-738116
2.025960,111.912930,KLINIK KESIHATAN JULAU,"Pekan Julau, 96600 Julau, Julau, Sarawak",084-734253
2.027580,102.765190,KLINIK KESIHATAN AIR HITAM,"Bt. 27, 84540 Lenga, Muar, Johor",07-4212512
2.028390,113.171500,KLINIK KESIHATAN NANGA MUJONG,"Kampung Nanga Mujong, Sungai Mujong, 96800 Kapit, Kapit, Sarawak",084-796404
2.033117,112.261047,KLINIK KESIHATAN NANGA POI (MENALUN),"Kampung Nanga Poi (D/A Peg. Kesihatan Daerah Kanowit), 96700 Kanowit, Kanowit, Sarawak",013-2865114
2.040522,102.659560,KLINIK KESIHATAN BAKRI,"MLO 2599, Jalan Muar ke Pagoh, 84600 Jorak, Muar, Johor",06-9867007
2.050051,102.585121,KLINIK KESIHATAN KAMPUNG KENANGAN TUN DR. ISMAIL,"Batu 6, 84200 Bakri, Muar, Johor",06-9523563
2.050537,113.670679,KLINIK KESIHATAN TUNOH SCHEME,"Kampung Tunoh Scheme (D/A Peg. Kesihatan Bahagian Kapit, Wisma Persekutuan), 96800 Kapit, Kapit, Sarawak",084-796404
2.058110,102.576490,KLINIK KESIHATAN BANDAR MAHARANI,"Jalan Salleh, 84000 Muar, Muar, Johor",06-9811324
2.084470,113.237040,KLINIK KESIHATAN SEKEROH,"Sungai Sekeroh (D/A Peg. Kesihatan Bahagian Kapit, Wisma Persekutuan), 96800 Kapit, Kapit, Sarawak",086-429704
2.085010,103.494390,KLINIK KESIHATAN KAHANG TIMUR,"PTD 14726, Jalan Merak, 86007 Kahang, Kluang, Johor",07-7866633
2.099233,102.639881,KLINIK KESIHATAN BUKIT PASIR,"No.264-5 Jln Kenangan 1, Tmn Tun Dr Ismail, 84000 Muar, Muar, Johor",06-9856196
2.122310,111.519300,KLINIK KESIHATAN SARIKEI,"Sarikei, Jalan Hospital Lama, 96100 Sarikei, Sarikei, Sarawak",084-658652
2.124590,102.492790,KLINIK KESIHATAN SUNGAI RAMBAI,"KM 32, Sungai Rambai, 77400 Sungai Rambai, Jasin, Melaka",06-2659526
2.136788,111.971916,KLINIK KESIHATAN DURIN,"Jln Durin, 96000 Sibu, Sibu, Sarawak",084-736108
2.146690,102.563380,KLINIK KESIHATAN SUNGAI MATI,"Lot 1052, Klinik Kesihatan Sg Mati, 84400 Serom, Ledang, Johor",06-9751054
2.151349,111.360155,KLINIK KESIHATAN TANJUNG MANIS,"Pekan Tanjung Manis, 96200 Daro, Daro, Sarawak",084-613236
2.151526,102.774849,KLINIK KESIHATAN PAGOH,"Batu 15, Jalan Muar ke Parit Sulong, 86100 Air Hitam, Muar, Johor",07-4212512
2.153660,102.428050,KLINIK KESIHATAN MERLIMAU,"Kampung Merlimau, Jalan Besar Merlimau, 77300 Merlimau, Jasin, Melaka",06-2631533
2.154350,103.907318,KLINIK KESIHATAN TENGGAROH II (FELDA),"JKR 839-P, 86800 Tenggaroh, Mersing, Johor",07-7911267
2.154940,111.255492,KLINIK KESIHATAN KUALA REJANG,"Kuala Rajang, 96250 Daro, Daro, Sarawak",084-612368
2.160050,102.342941,KLINIK KESIHATAN UMBAI,"Jalan Muar, 77300 Merlimau, Jasin, Melaka",06-2615610
2.164390,111.637140,KLINIK KESIHATAN BINTANGOR,"Pekan Bintagor, 96500 Bintangor, Meradong, Sarawak",084-693333
2.187290,102.271150,KLINIK KESIHATAN UJONG PASIR,"Jalan Ujong Pasir, 75000 Ujong Pasir, Melaka Tengah, Melaka",06-2867333
2.187405,103.195591,KLINIK KESIHATAN PALOH,"Lot 120, Jalan Klinik, 86600 Paloh, Kluang, Johor",07-7811059
2.194490,102.250080,KLINIK KESIHATAN JALAN GEREJA,"Jalan Gereja, 75500 Melaka, Melaka Tengah, Melaka",06-2824452
2.201313,102.238144,KLINIK KESIHATAN TENGKERA,"Jalan Dato Wira Poh Ah Tiam, Lorong Pandan, Tengkera, 75200 Melaka Tengah, Melaka Tengah, Melaka",06-3360176
2.204160,102.315680,KLINIK KESIHATAN AYER MOLEK,"Jalan Air Molek, 75460 Ayer Molek, Melaka Tengah, Melaka",06-2680333
2.208967,102.705691,KLINIK KESIHATAN GERSIK,"PTD 7800, 84700 Gersik, Ledang, Johor",06-9728780
2.215870,103.540750,KLINIK KESIHATAN KAHANG BATU 22,"Lot 96, Jalan Mersing Batu 22, 86700 Kahang, Kluang, Johor",07-7881229
2.218270,102.200530,KLINIK KESIHATAN KLEBANG BESAR,"Jalan Klebang Besar, 75200 Klebang Besar, Melaka Tengah, Melaka",06-3154144
2.222318,102.254434,KLINIK KESIHATAN PERINGGIT,"Jalan Peringgit, 75400 Melaka Tengah, Melaka Tengah, Melaka",06-2882344
2.223334,102.163330,KLINIK KESIHATAN TANJUNG KLING,"Batu 7 Pekan Tanjung Kling, 76400 Tanjung Kling, Melaka Tengah, Melaka",06-3511333
2.230560,111.214776,KLINIK KESIHATAN BELAWAI,"Belawai, 96200 Daro, Daro, Sarawak",084-815219
2.246420,111.841770,KLINIK KESIHATAN JALAN LANANG,"Poliklinik Lanang, Jln Ulu Lanang, 96000 Sibu, Sibu, Sarawak",084-210433
2.247360,103.041280,KLINIK KESIHATAN CHAAH,"Chaah, 85400 Segamat, Segamat, Johor",07-9261236
2.254529,102.179914,KLINIK KESIHATAN BUKIT RAMBAI,"Jalan Bukit Rambai, Bukit Rambai, 75250 Bukit Rambai, Melaka Tengah, Melaka",06-3512464
2.259210,102.831950,KLINIK KESIHATAN LENGA,"Lot 1507, Jalan Sg. Abong, 84000 Muar, Muar, Johor",06-9711445
2.266558,102.284026,KLINIK KESIHATAN AYER KEROH,"Jalan Ayer Keroh Lama, 75350 Melaka Tengah, Melaka Tengah, Melaka",06-2312344
2.267690,103.854530,KLINIK KESIHATAN JEMALUANG,"JKR 673, Jalan Kota Tinggi, 86800 Jemaluang, Mersing, Johor",07-7921271
2.274482,102.215104,KLINIK KESIHATAN CHENG,"Jalan Cheng, 75250 Cheng, Melaka Tengah, Melaka",06-3123333
2.275070,102.545590,KLINIK KESIHATAN PAYAMAS,"PT 1405, Klinik Kesihatan Payamas, Jalan Payamas, 84900 Tangkak, Ledang, Johor",06-9781861
2.280279,102.131551,KLINIK KESIHATAN SUNGAI UDANG,"Batu 11 1/2, 76300 Sungai Udang, Melaka Tengah, Melaka",06-3531333
2.298010,103.134180,KLINIK KESIHATAN BEKOK,"Jalan Gunung, 86500 Bekok, Segamat, Johor",07-9221241
2.300717,111.835370,KLINIK KESIHATAN JALAN OYA,"Oya, Jalan Oya, 96000 Sibu, Sibu, Sarawak",084-323355
2.302766,111.685774,KLINIK KESIHATAN BAWANG ASSAN,"Bawang Assan, 96000 Sibu, Sibu, Sarawak",084-801044
2.303595,102.611964,KLINIK KESIHATAN SAGIL,"PT 8814, Klinik Kesihatan Sagil, Jalan Segamat, 84020 Tangkak, Ledang, Johor",06-9772244
2.306740,102.430130,KLINIK KESIHATAN JASIN,"Pejabat Kesihatan Jasin, 77000 Jasin, Jasin, Melaka",06-5294636
2.310834,102.286363,KLINIK KESIHATAN DURIAN TUNGGAL,"KM 16, Padang Keladi, 76100 Durian Tunggal, Alor Gajah, Melaka",06-5531133
2.340830,112.324740,KLINIK KESIHATAN TEPUS,"Pekan Tepus (Batu 12, Jalan Sibu-Bintulu), 96000 Sibu, Selangau, Sarawak",084-315494
2.351160,102.404170,KLINIK KESIHATAN KEMENDOR,"Jalan Bunga Kertas, 77000 Jasin, Jasin, Melaka",06-5293330
2.351784,112.128064,KLINIK KESIHATAN SEKUAU,"Kampung Sekau (D/A Peg. Kesihatan Bahagian Sibu, Wisma Persekutuan, Persiaran Brooke), 96000 Sibu, Selangau, Sarawak",084-805193
2.356200,102.100600,KLINIK KESIHATAN MASJID TANAH,"Batu 18 1/2, Paya Rumput, 78300 Masjid Tanah, Alor Gajah, Melaka",06-3842533
2.358610,102.511710,KLINIK KESIHATAN SIMPANG BEKOH,"Kampung Simpang Bekoh, Jalan Besar, 77100 Asahan, Jasin, Melaka",06-5236033
2.359550,102.043680,KLINIK KESIHATAN KUALA SUNGAI BARU,"Pekan Kuala Sungai Baru, 78200 Kuala Sungai Baru, Alor Gajah, Melaka",06-3876333
2.360020,111.512610,KLINIK KESIHATAN NANGA SEMAH,"Nanga Semah, 96200 Daro, Daro, Sarawak",019-210006
2.363130,102.783940,KLINIK KESIHATAN BUKIT SERAMPANG,"Lot 4470, 85220 Bukit Serampang, Ledang, Johor",06-9776961
2.363141,102.783946,KLINIK KESIHATAN BUKIT GAMBIR,"Lot 11961, 84800 Gersik, Ledang, Johor",06-9762549
2.376670,102.338140,KLINIK KESIHATAN MACAP BARU,"KM 17, Kampung Macap Baru, 78000 Alor Gajah, Alor Gajah, Melaka",06-5252333
2.380430,103.018900,KLINIK KESIHATAN LABIS,"Jalan Muar, Jementah, 85300 Labis, Segamat, Johor",07-9251500
2.380440,102.392938,KLINIK KESIHATAN FELDA BUKIT SENGGEH,"Felda Bukit Senggeh, Asahan, 77100 Jasin, Jasin, Melaka",06-5228305
2.382600,113.349866,KLINIK KESIHATAN PUNAN BAH,"Kampung Punan Bah, 96800 Belaga, Belaga, Sarawak",084-461323
2.386458,103.712455,KLINIK KESIHATAN NITAR 1 (FELDA),"Jalan Merbah, 86800 Mersing, Mersing, Johor",07-7961633
2.387980,102.372540,KLINIK KESIHATAN SELANDAR,"Jalan Macap, 77500 Selandar, Jasin, Melaka",06-5251495
2.418420,111.252850,KLINIK KESIHATAN PALOH,"Kampung Paloh, 96200 Daro, Daro, Sarawak",084-8663409
2.426070,102.249160,KLINIK KESIHATAN PADANG SEBANG,"Batu 19 1/2, Kampung Padang Sebang, 78000 Alor Gajah, Alor Gajah, Melaka",06-5547932
2.429350,101.937120,KLINIK KESIHATAN PASIR PANJANG,"Pejabat Kesihatan, KM 2, Jalan Seremban, 71250 Port Dickson, Port Dickson, Negeri Sembilan",06-6619346
2.436755,103.834298,KLINIK KESIHATAN MERSING KANAN,"Lot 2464, Jalan Endau, 86800 Mersing, Mersing, Johor",07-7992005
2.437446,102.468998,KLINIK KESIHATAN NYALAS,"Kampung Nyalas, 77100 Jasin, Jasin, Melaka",06-5228306
2.439480,102.684640,KLINIK KESIHATAN JEMENTAH,"Jalan Muar, 85200 Jementah, Segamat, Johor",07-9471321
2.442639,102.300906,KLINIK KESIHATAN HUTAN PERCHA,"KM 35, Felda Tun Ghafar Baba, 78000 Alor Gajah, Alor Gajah, Melaka",06-5548224
2.461879,102.340260,KLINIK KESIHATAN TEBONG,"Tebong, 76100 Durian Tunggal, Alor Gajah, Melaka",05-4486716
2.463398,114.250335,KLINIK KESIHATAN LUSONG LAKU,"Kampung Lusong  Laku, 96800 Belaga, Belaga, Sarawak",086-464147
2.464490,111.954940,KLINIK KESIHATAN PASSAI SIONG,"Passai Siong (D/A Peg. Kesihatan Bahagian Sibu, Wisma Persekutuan, Persiaran Brooke), 96000 Sibu, Sibu, Sarawak",084-861200
2.465340,102.068100,KLINIK KESIHATAN LUBOK CHINA,"Pekan Lubok China, 78100 Lubok China, Alor Gajah, Melaka",06-6966475
2.472310,103.057980,KLINIK KESIHATAN PEKAN AIR PANAS,"Felda Pemanis, 85300 Pekan Air Panas, Segamat, Johor",07-9287009
2.482700,102.017370,KLINIK KESIHATAN LINGGI,"KM 2, Jalan Seremban, 71150 Port Dickson, Port Dickson, Negeri Sembilan",06-6970213
2.484110,102.235210,KLINIK KESIHATAN SEREMBAN,"Jalan Rasah, 70300 Seremban, Seremban, Negeri Sembilan",06-7679667
2.484500,102.234330,KLINIK KESIHATAN TAMPIN (JPL),"Tampin, 73009 Tampin, Tampin, Negeri Sembilan",06-4431806
2.494260,102.862820,KLINIK KESIHATAN BANDAR PUTRA,"Jalan Genuang, Bandar Putra, 85000 Bandar Putra, Segamat, Johor",07-9436099
2.494703,103.800974,KLINIK KESIHATAN TENGLU,"Lot 213, Jalan Endau, 86800 Tenglu, Mersing, Johor",07-7991276
2.505160,102.815340,KLINIK KESIHATAN SEGAMAT,"Jalan Muar, 85000 Segamat, Segamat, Johor",07-7931334
2.506840,102.118580,KLINIK KESIHATAN ASTANA RAJA,"JKR 401, Lot 1428 & 1429, Mukim Legong Hilir, 71350 Kota, Rembau, Negeri Sembilan",06-4382401
2.512020,111.433490,KLINIK KESIHATAN DARO,"Daro, 96200 Daro, Daro, Sarawak",084-823333
2.516680,102.484010,KLINIK KESIHATAN AIR KUNING,"Air Kuning, 73200 Gemenceh, Tampin, Negeri Sembilan",06-4478730
2.521770,102.157145,KLINIK KESIHATAN KOTA,"JKR 108, Lot 2157, Mukim Pekan Kota, 71350 Rembau, Rembau, Negeri Sembilan",06-4382251
2.527674,112.329110,KLINIK KESIHATAN SELANGAU,"KM 80, Jln Sibu/ Bintulu, Kampung Selangau, 96000 Selangau, Selangau, Sarawak",084-894320
2.528360,101.791810,KLINIK KESIHATAN PORT DICKSON,"KM 1, Jalan Seremban, 71000 Port Dickson, Port Dickson, Negeri Sembilan",06-6473333
2.532800,102.399700,KLINIK KESIHATAN GEMENCEH,"Gemenchih, 73200 Gemencheh, Tampin, Negeri Sembilan",06-4318304
2.534248,112.316249,KLINIK KESIHATAN LADANG SAWIT,"Kampung Ladang Sawit (D/A Pegawai Kesihatan Bahagian Mukah), 96400 Mukah, Mukah, Sarawak",084-805166
2.543024,113.032138,KLINIK KESIHATAN NANGA TAU,"Nanga Tau (Pej. Kesihatan Bahagian Bintulu , Lebuh Raya Abang Galau), 97000 Bintulu, Tatau, Sarawak",086-479707
2.544737,102.770492,KLINIK KESIHATAN BULOH KASAP,"Pekan Air Panas, Labis, 85010 Buluh Kasap, Segamat, Johor",07-9441241
2.575200,102.708160,KLINIK KESIHATAN BATU ANAM,"Jalan Bukit Cantik, Jalan Muar, 85100 Batu Anam, Segamat, Johor",07-9499249
2.576170,101.837600,KLINIK KESIHATAN LUKUT,"KM 10, Jalan Seremban, 71010 Lukut, Port Dickson, Negeri Sembilan",06-6511951
2.583694,112.049524,KLINIK KESIHATAN NANGA BAOH,"Kampung Nanga Baoh, 96300 Dalat, Dalat, Sarawak",011-257494
2.584250,102.604620,KLINIK KESIHATAN GEMAS,"Gemas, 73400 Gemas, Tampin, Negeri Sembilan",07-9482352
2.585760,102.093440,KLINIK KESIHATAN REMBAU,"JKR 493, Lot 93, Jalan Batu Hampar, Mukim Bandar Rembau, 71300 Rembau, Rembau, Negeri Sembilan",06-6852010
2.599870,102.901620,KLINIK KESIHATAN PEMANIS ,"Felda Pemanis, Jalan Tasik Alai, Buluh Kasap, 85009 Pemanis, Segamat, Johor",07-9456673
2.600580,101.961990,KLINIK KESIHATAN RANTAU,"Jalan Besar Rantau, 71200 Rantau, Seremban, Negeri Sembilan",06-6941274
2.601350,111.837040,KLINIK KESIHATAN RASSAU,"Batang Air, Kampung Rasau (D/A Peg. Kesihatan Bahagian Sibu, Wisma Persekutuan, Persiaran Brooke), 96000 Matu, Matu, Sarawak",010-8771382
2.608700,102.268900,KLINIK KESIHATAN JOHOL,"Klinik Kesihatan Johol, 73100 Johol, Kuala Pilah, Negeri Sembilan",06-4367239
2.619000,112.266990,KLINIK KESIHATAN NANGA TAROH,"Kampung Nanga Taroh (D/A Peg. Kesihatan Bahagian Mukah), 96400 Ng. Baoh, Mukah, Sarawak",011-257484
2.629170,102.062240,KLINIK KESIHATAN PEDAS,"JKR 437, Lot 4056, Pekan Pedas, 71400 Rembau, Rembau, Negeri Sembilan",06-6851306
2.633915,111.295032,KLINIK KESIHATAN BETANAK,"Betanak, 96200 Daro, Daro, Sarawak",019-8367446
2.634457,113.151526,KLINIK KESIHATAN KAKUS,"Kakus (Pej. Kesihatan Bahagian Bintulu, Lebuh Raya Abang Galau), 97000 Tatau, Bintulu, Sarawak",086-474302
2.635692,111.709433,KLINIK KESIHATAN NANGA PASSIN,"Kampung Nanga Passin (D/A Peg. Kesihatan Bahagian Sibu, Wisma Persekutuan, Persiaran Brooke, Sibu), 96000 Matu, Matu, Sarawak",017-2100009/ 011-213
2.638119,111.515198,KLINIK KESIHATAN TIAN,"Kampung Tian, 96250 Matu, Matu, Sarawak",084-832733
2.643170,101.743420,KLINIK KESIHATAN BUKIT PELANDUK,"Pejabat Kesihatan, KM 2, Jalan Seremban, 71960 Port Dickson, Port Dickson, Negeri Sembilan",06-6581964
2.644631,101.718489,KLINIK KESIHATAN SUNGAI PELEK,"436, Jalan Sg Pelek, 43950 Sepang, Sepang, Selangor",03-31411242
2.645860,102.488900,KLINIK KESIHATAN JELAI,"Jelai, 73480 Gemas, Tampin, Negeri Sembilan",06-4347488
2.649800,103.623310,KLINIK KESIHATAN ENDAU,"Lot 427, Jalan Sekolah, 86900 Endau, Mersing, Johor",07-7943214
2.663542,102.415984,KLINIK KESIHATAN BUKIT ROKAN UTARA,"Bukit Rokan Utara, 73200 Gemencheh, Tampin, Negeri Sembilan",06-4512600
2.665583,101.551437,KLINIK KESIHATAN TANJUNG SEPAT,"Tanjung Sepat, 42700 Banting, Kuala Langat, Selangor",03-31972880
2.668110,102.145620,KLINIK KESIHATAN GUNUNG PASIR,"Klinik Kesihatan Gunung Pasir, 71550 Sri Menanti, Kuala Pilah, Negeri Sembilan",06-4979245
2.670730,103.613860,KLINIK KESIHATAN TANJUNG GEMOK,"Tanjung Gemok, 26800 Kuala Rompin, Rompin, Pahang",09-4132510
2.675341,111.532523,KLINIK KESIHATAN MATU,"Pekan Matu, 96000 Matu, Matu, Sarawak",084-832236
2.679110,101.845990,KLINIK KESIHATAN SENDAYAN ,"Felda Sendayan, 71950 Sendayan, Seremban, Negeri Sembilan",06-7922073
2.687101,102.949297,KLINIK KESIHATAN PERWIRA JAYA,"Wakil Pos, Bandar 19, 85070 Segamat, Rompin, Pahang",09-4371176
2.687318,111.934802,KLINIK KESIHATAN MEDONG,"Desa Medong, 96300 Dalat, Mukah, Sarawak",084-866236
2.689430,101.750140,KLINIK KESIHATAN SEPANG,"Sepang, 43900 Sepang, Sepang, Selangor",03-31422785
2.691910,101.988380,KLINIK KESIHATAN SENAWANG,"Persiaran Senawang 2, 70450 Seremban, Seremban, Negeri Sembilan",06-6766000
2.705770,102.253180,KLINIK KESIHATAN SENALING,"Klinik Kesihatan Senaling, 72000 Kuala Pilah, Kuala Pilah, Negeri Sembilan",06-4814479
2.706119,101.907688,KLINIK KESIHATAN SEREMBAN 2,"Jalan S2 A2, 70300 Seremban 2, Seremban, Negeri Sembilan",06-6033700
2.706620,113.782980,KLINIK KESIHATAN BELAGA,"Pekan Kecil Belaga, 96800 Belaga, Belaga, Sarawak",086-461323
2.709031,111.369778,KLINIK KESIHATAN BRUIT,"Bruit, 96200 Mukah, Daro, Sarawak",017-2100000
2.710470,111.463300,KLINIK KESIHATAN KUALA MATU,"Kampung Kuala Matu, 96250 Matu, Matu, Sarawak",084-807618
2.723670,101.987460,KLINIK KESIHATAN AMPANGAN,"KM 4, Jalan Seremban-Kuala Pilah, 70400 Seremban, Seremban, Negeri Sembilan",06-6788986
2.736190,112.662000,KLINIK KESIHATAN SUNGAI ARIP,"Kampung Sungai Arip (D/A Peg. Kesihatan Bahagian Sibu, Wisma Persekutuan, Persiaran Brooke), 96000 Sibu, Selangau, Sarawak",086-469603
2.737180,102.248940,KLINIK KESIHATAN KUALA PILAH,"Klinik Kesihatan Kuala Pilah, 72000 Kuala Pilah, Kuala Pilah, Negeri Sembilan",06-4842844
2.739262,111.304668,KLINIK KESIHATAN TEKAJONG,"Kampung Tekajong, 96200 Daro, Daro, Sarawak",019-8364561
2.741710,102.134590,KLINIK KESIHATAN TERACHI,"Terachi, 71550 Tanjong Ipoh, Kuala Pilah, Negeri Sembilan",06-4887202
2.741800,102.647130,"KLINIK KESIHATAN PALONG 4,5,6","Klinik Kesihatan Palong 4,5,6, 73430 Gemas, Jempol, Negeri Sembilan",06-4666433
2.745346,101.961609,KLINIK KESIHATAN DESA RHU,"Desa Rhu, 70400 Seremban, Seremban, Negeri Sembilan",06-7645561
2.765567,112.975837,KLINIK KESIHATAN SANGAN,"Sangan (Pen. Peg. Perubatan Kanan, Pej. Kesihatan Bahagian Bintulu, Lebuh Raya Abang Galau), 97000 Tatau, Tatau, Sarawak",086-581047/ 086-3262
2.766390,101.764900,KLINIK KESIHATAN KLIA,"Jijan, 71800 Nilai, Seremban, Negeri Sembilan",06-7913352
2.784380,102.581050,"KLINIK KESIHATAN PALONG 9, 10 & 11","JKR 861, Klinik Kesihatan Palong 9,10,11, 73430 Gemas, Jempol, Negeri Sembilan",06-4668419
2.788981,101.488450,KLINIK KESIHATAN KANCHUNG DARAT,"Jalan Durian, Kanchung Darat, 42700 Kuala Langat, Kuala Langat, Selangor",03-31871934
2.789722,101.749167,KLINIK KESIHATAN SALAK,"117, Jalan Salak, 43900 Sepang, Sepang, Selangor",03-87069001
2.790860,101.521740,KLINIK KESIHATAN SUNGAI LANG,"Kampung Sungai Lang, 42700 Banting, Kuala Langat, Selangor",03-31803739
2.793340,102.302910,KLINIK KESIHATAN JUASSEH,"Klinik Kesihatan Juasseh, 72500 Batu Kikir, Kuala Pilah, Negeri Sembilan",06-4981581
2.801470,103.480480,KLINIK KESIHATAN ROMPIN,"Rompin, 26800 Kuala Rompin, Rompin, Pahang",09-4145333
2.802610,101.798290,KLINIK KESIHATAN NILAI,"Nilai Square, 71800 Nilai, Seremban, Negeri Sembilan",06-7991282
2.803579,102.378073,KLINIK KESIHATAN BAHAU,"Klinik Kesihatan Bahau, 72100 Bahau, Jempol, Negeri Sembilan",06-4541234
2.817160,104.158310,KLINIK KESIHATAN TEKEK,"Tekek, Pulau Tioman, 86800 Tioman, Rompin, Pahang",09-4191880
2.819472,101.518006,KLINIK KESIHATAN TELOK DATOK,"Jalan Pegawai, 42700 Banting, Kuala Langat, Selangor",03-31871117
2.822010,102.667300,KLINIK KESIHATAN PALONG 7 & 8 (FELDA),"Klinik Kesihatan Palong 7 & 8, 73430 Gemas, Jempol, Negeri Sembilan",06-4645549
2.822030,111.710030,KLINIK KESIHATAN KUALA IGAN,"Kampung Igan, 96300 Daro, Matu, Sarawak",084-848306
2.824880,101.893150,KLINIK KESIHATAN MANTIN,"Jalan Besar Mantin, 71700 Mantin, Seremban, Negeri Sembilan",06-7581242
2.827310,101.620490,KLINIK KESIHATAN BUKIT CHANGGANG,"Bukit Changgang, 42700 Banting, Kuala Langat, Selangor",03-31491355
2.842977,101.441292,KLINIK KESIHATAN KAMPUNG BANDAR,"Jalan Kurai, Chendoi, 42700 Banting, Kuala Langat, Selangor",03-31201333
2.857706,102.984424,KLINIK KESIHATAN CHANIS,"Chanis, 26700 Muadzam Shah, Rompin, Pahang",09-4471106
2.858519,111.877221,KLINIK KESIHATAN KUALA OYA,"Kampung Kuala Oya, 96300 Dalat, Dalat, Sarawak",084-865231
2.859190,102.270700,KLINIK KESIHATAN PADANG LEBAR,"Klinik Kesihatan Padang Lebar, 72200 Batu Kikir, Kuala Pilah, Negeri Sembilan",06-4982667
2.859739,101.681697,KLINIK KESIHATAN DENGKIL,"Batu 30 Jalan Kajang, 43800 Dengkil, Sepang, Selangor",03-87686355
2.867170,101.936750,KLINIK KESIHATAN LENGGENG,"Lenggeng, 71750 Lenggeng, Seremban, Negeri Sembilan",03-87667499
2.877959,101.500299,KLINIK KESIHATAN JENJAROM,"Jenjorom, Kuala Langat, Jalan Besar, 42700 Banting, Kuala Langat, Selangor",03-31913066
2.881340,112.854310,KLINIK KESIHATAN TATAU,"Pekan Tatau, 97000 Bintulu, Tatau, Sarawak",086-584619
2.887998,101.871355,KLINIK KESIHATAN BERANANG,"Jalan Seremban, 43700 Beranang, Hulu Langat, Selangor",03-87667577
2.888280,101.792413,KLINIK KESIHATAN BANDAR SERI PUTRA,"Jalan 1/9, Bandar Seri Putra, 43000 Kajang, Hulu Langat, Selangor",03-89258592
2.897900,102.394580,KLINIK KESIHATAN BANDAR SERI JEMPOL,"Klinik Kesihatan Bandar Seri Jempol, 72120 Bandar Seri Jempol, Jempol, Negeri Sembilan",06-4581667
2.904100,102.899880,KLINIK KESIHATAN BANDAR TUN ABDUL RAZAK,"Bandar Tun Razak, 26900 Bandar Tun Razak, Rompin, Pahang",09-4457297
2.905090,101.467690,KLINIK KESIHATAN TELOK PANGLIMA GARANG,"Telok Panglima Garang, 42500 Banting, Kuala Langat, Selangor",03-31227433
2.912270,101.487820,KLINIK KESIHATAN BATU 10 KEBUN BARU,"Jalan Dato' Kasman, Batu 10, Teluk Panglima Garang, 42500 Banting, Kuala Langat, Selangor",03-31220943
2.916149,101.683791,KLINIK KESIHATAN PUTRAJAYA PRESINT 13,"Lot 3C4, 26 Boulevard, 62675 Putrajaya, Putrajaya, WP Putrajaya",03-88880241
2.918260,113.915950,KLINIK KESIHATAN UMA SAMBOP,"Kampung Uma Sambop, 96800 Belaga, Belaga, Sarawak",086-485165
2.931568,112.541108,KLINIK KESIHATAN BALINGIAN,"Balingan (D/A Peg. Kesihatan Bahagian Mukah), 96400 Mukah, Mukah, Sarawak",084-484146
2.935412,101.773739,KLINIK KESIHATAN BANDAR BARU BANGI,"Jalan Persiaran 3, Seksyen 3, 43650 Bandar Baru Bangi, Hulu Langat, Selangor",03-89258707
2.937778,101.324722,KLINIK KESIHATAN PULAU INDAH,"PT 8805, JKR 1353, Jalan Rahmat, 42920 Klang, Klang, Selangor",03-31012035
2.941017,101.456183,KLINIK KESIHATAN SIJANGKANG,"Jalan Sekolah, Batu 1, Kg Sijangkang, 42500 Banting, Kuala Langat, Selangor",03-31226686
2.941260,101.676280,KLINIK KESIHATAN PUTRAJAYA PRESINT 9,"No 1, Jalan P9E, Presint 9, 62200 Putrajaya, Putrajaya, WP Putrajaya",03-88883057
2.945500,102.493620,KLINIK KESIHATAN SERTING HILIR,"Bandar Seri Jempol, 72120 Bandar Seri Jempol, Jempol, Negeri Sembilan",06-4683829
2.951870,101.840494,KLINIK KESIHATAN SEMENYIH,"Kg Baru Cina, 43500 Semenyih, Hulu Langat, Selangor",03-87238355
2.953164,101.677440,KLINIK KESIHATAN PUTRAJAYA PRESINT 11,"Blok B-T00-U03 & 04, Pangsapuri Zon 6B, Presint 11, 62300 Putrajaya, Putrajaya, WP Putrajaya",03-88811732
2.953556,101.726309,KLINIK KESIHATAN PUTRAJAYA PRESINT 14,"Lot Bilik Bacaan, Blok Apartment 14-7, Kuarters Kakitangan Kerajaan, Presint 14, 62000 Putrajaya, Putrajaya, WP Putrajaya",03-88880107
2.955110,102.059860,KLINIK KESIHATAN JELEBU,"Klinik Kesihatan Jelebu, 71600 Kuala Klawang, Jelebu, Negeri Sembilan",06-6139497/ 9300/ 94
2.955740,102.224100,KLINIK KESIHATAN PERTANG,"Simpang Pertang, 72300 Pertang, Jelebu, Negeri Sembilan",06-4941287
2.963784,102.981827,KLINIK KESIHATAN PERANTAU DAMAI,"Perantau Damai, 26700 Muadzam Shah, Rompin, Pahang",09-4431333
2.978650,101.825710,KLINIK KESIHATAN KAJANG,"Jalan Semenyih, 43000 Kajang, Hulu Langat, Selangor",03-87395764
2.983110,114.957860,KLINIK KESIHATAN LONG JEEH,"Kampung Long Jeeh (D/A Peg. Kesihatan Daerah Baram, Jalan Hospital), 98050 Baram, Marudi, Sarawak",013-2865602
2.985880,101.771670,KLINIK KESIHATAN SG. CHUAH,"Kawasan Perindustrian Sungai Chua, Sungai Ramal Luar, 43000 Kajang, Hulu Langat, Selangor",03-87336775
2.989883,101.445698,KLINIK KESIHATAN BANDAR BOTANIK,"Blok B, Jalan Langat Bandar Botanik, 41200 Klang, Klang, Selangor",03-33244260
2.993980,101.619750,KLINIK KESIHATAN PUCHONG,"Batu 14, Jalan Puchong, 47100 Puchong, Petaling, Selangor",03-80611814
3.000833,101.393889,KLINIK KESIHATAN PELABUHAN KLANG,"PT 6/62, Jalan Limbungan, 42000 Klang, Klang, Selangor",03-31658459
3.002440,102.079250,KLINIK KESIHATAN TITI,"Titi, 71650 Jelebu, Jelebu, Negeri Sembilan",06-6111398
3.012981,112.586830,KLINIK KESIHATAN KUALA BALINGIAN,"Kampung Kuala Balingan, 96400 Mukah, Mukah, Sarawak",084-484265
3.013068,101.530713,KLINIK KESIHATAN BUKIT NAGA,"PT 93/65, Batu 6, Jalan Klinik, 42450 Klang, Klang, Selangor",03-31422785
3.014444,101.412778,KLINIK KESIHATAN PANDAMARAN,"Persiaran Raja Muda Musa, 42000 Klang, Klang, Selangor",03-31658769
3.018889,101.253333,KLINIK KESIHATAN PULAU KETAM,"PT 14208, Jalan Merdeka, 42490 Pelabuhan Klang, Klang, Selangor",03-31104206
3.020860,101.592510,KLINIK KESIHATAN BATU 13 ? PUCHONG,"Batu 13, Jalan Klang Lama, 47100 Puchong, Petaling, Selangor",03-80623984
3.023030,101.775670,KLINIK KESIHATAN SUNGAI SEKAMAT,"Batu 12 ?, Sungai Sekamat, 43000 Kajang, Hulu Langat, Selangor",03-87336312
3.024181,102.266040,KLINIK KESIHATAN PASOH 1,"Klinik Kesihatan Pasoh 1, Simpang Pertang, 72300 Jelebu, Jelebu, Negeri Sembilan",06-4951272
3.026010,102.369240,KLINIK KESIHATAN LUI MUDA,"Bandar Seri Jempol, 72120 Bandar Seri Jempol, Jempol, Negeri Sembilan",06-4691003
3.027400,101.711340,KLINIK KESIHATAN SERI KEMBANGAN,"Jalan Besar, 43300 Seri Kembangan, Petaling, Selangor",03-89455929
3.027420,101.746880,KLINIK KESIHATAN BALAKONG,"Kampung Baru Balakong, 43300 Balakong, Hulu Langat, Selangor","03-90213210/
 03-896"
3.037222,101.446667,KLINIK KESIHATAN ANIKA KLANG,"112, Jalan Pegawai, Off Tengku Kelana, 41000 Klang, Klang, Selangor",03-33748019
3.044480,113.915865,KLINIK KESIHATAN SUNGAI ASAP,"Pekan Sungai Asap, 96800 Belaga, Belaga, Sarawak",013-8657739
3.049873,101.533226,KLINIK KESIHATAN SEKSYEN 19 SHAH ALAM,"Jalan Gelora 19/46, 40300 Shah Alam, Petaling, Selangor",03-55413570
3.050556,101.458056,KLINIK KESIHATAN BUKIT KUDA,"Jalan Batu Tiga Lama, 41300 Klang, Klang, Selangor",03-33488174
3.056713,115.076194,KLINIK KESIHATAN LONG MOH,"Kampung Long Moh (Pej. Kesihatan Bahagian Miri), 98050 Baram, Marudi, Sarawak",085-474722
3.063225,101.710439,KLINIK KESIHATAN SUNGAI BESI,"No.80, Jalan Tasik Utama 5, Medan Niaga Tasik Damai, 57100 Sungai Besi, Kuala Lumpur, WP Kuala Lumpur",03-60549911
3.068970,101.411540,KLINIK KESIHATAN RANTAU PANJANG,"Jalan Rantau Panjang, 41400 Klang, Klang, Selangor",03-32916930
3.069520,101.774200,KLINIK KESIHATAN BATU 9 CHERAS,"Batu 9, 43200 Cheras, Hulu Langat, Selangor",03-90804503
3.072010,101.491180,KLINIK KESIHATAN SEKSYEN 7 SHAH ALAM,"No.2 Persiaran Kayangan, Seksyen 7, 40000 Shah Alam, Petaling, Selangor",03-55180195
3.078361,112.800944,KLINIK KESIHATAN KUALA TATAU,"Kampung Kuala Tatau, 97200 Tatau, Bintulu, Sarawak",086-326287
3.079000,101.634740,KLINIK KESIHATAN TAMAN MEDAN,"Jalan PJS 2C/5, Taman Dato Harun, 46000 Petaling Jaya, Petaling, Selangor",03-77819001
3.079358,101.665244,KLINIK KESIHATAN PETALING BAHAGIA ,"Batu 6, Jalan Puchong, 58200 Kuala Lumpur, Kuala Lumpur, WP Kuala Lumpur",03- 77829355
3.087158,101.720489,KLINIK KESIHATAN BANDAR TUN RAZAK ,"No.16 & 18, Jalan Jujur 3 , Bandar Tun Razak, 56000 Kuala Lumpur, Kuala Lumpur, WP Kuala Lumpur",03-91713333
3.099130,101.600640,KLINIK KESIHATAN KELANA JAYA,"Lot. 38294, Jln.SS6/3A Kelana Jaya, 47301 Petaling Jaya, Petaling, Selangor",03-78045001
3.101280,102.220990,KLINIK KESIHATAN SIMPANG DURIAN,"Simpang Durian, 72400 Simpang Durian, Jelebu, Negeri Sembilan",06-4914522
3.103531,113.924488,KLINIK KESIHATAN SUNGAI KOYAN,"Kampung Sungai Koyan, 96800 Belaga, Belaga, Sarawak",09-3401533
3.106260,101.748440,KLINIK KESIHATAN CHERAS BARU ,"Jalan 16, Off Jalan Kuari, Kampung Cheras Baru, 56100 Cheras Baru, Kuala Lumpur, WP Kuala Lumpur",03-42946114
3.107719,102.534376,KLINIK KESIHATAN TEMBANGAU,"Tembangau, 28380 Triang, Bera, Pahang",06-4685730
3.110490,113.268160,KLINIK KESIHATAN SEBAUH,"Pekan Sebauh (D/A Peg. Kesihatan Bahagian Bintulu, Lebuh Raya Abang Galau), 97000 Bintulu, Bintulu, Sarawak",086-422233
3.110900,101.814825,KLINIK KESIHATAN BATU 14,"Batu 14, 43200 Hulu Langat, Hulu Langat, Selangor",03-90211414
3.115289,101.668414,KLINIK KESIHATAN PANTAI ,"C15-3, Tower C, Wisma Goshen, Plaza Pantai, No.5 Jalan 4/83A, Off Jalan Pantai Baru, 59200 Pantai Baru, Kuala Lumpur, WP Kuala Lumpur",03-22881071
3.122382,101.730201,KLINIK KESIHATAN CHERAS ,"No. 14, Jalan Yaakob Latiff, 56000 Bandar Tun Razak, Kuala Lumpur, WP Kuala Lumpur",03-91309022
3.136389,101.440833,KLINIK KESIHATAN MERU,"PT 55/61, Jalan Kenangan, 41050 Bukit Raja, Klang, Selangor",03-33929802
3.138660,102.375240,KLINIK KESIHATAN KEMAYAN,"Kemayan, 28320 Triang, Bera, Pahang",09-2409715
3.139444,101.372222,KLINIK KESIHATAN KAPAR,"PT 3763, Sek 1, Batu 10, Jalan Kapar, 42200 Klang, Klang, Selangor",03-32508355
3.140533,103.441185,KLINIK KESIHATAN NENASI,"Kampong Nenasi, 26680 Pekan, Pekan, Pahang",09-4181233
3.144239,101.732539,KLINIK KESIHATAN KAMPUNG PANDAN,"Jalan Belangkas, Kampung Pandan, 55100 Kampung Pandan, Kuala Lumpur, WP Kuala Lumpur",03-92810275
3.144953,101.691319,KLINIK KESIHATAN TANGLIN,"Jalan Cenderasari, 50590 Tanglin, Kuala Lumpur, WP Kuala Lumpur",03-26983311
3.145315,101.761272,KLINIK KESIHATAN AMPANG,"Jalan Mewah 3, Pekan Ampang, 68000 Ampang, Hulu Langat, Selangor",03-42922333
3.151080,113.370120,KLINIK KESIHATAN LUBOK TAPANG,"Lubok Tapang (D/A Peg. Kesihatan Bahagian Bintulu, Lebuh Raya Abang Galau), 97000 Bintulu, Bintulu, Sarawak",086-469003
3.160199,113.701678,KLINIK KESIHATAN TUBAU,"Pekan Tubau, Bintulu (D/A Peg. Kesihatan Bahagian Bintulu, Lebuh Raya Abang Galau), 97000 Bintulu, Bintulu, Sarawak",086-472104
3.164705,102.976785,KLINIK KESIHATAN BUKIT IBAM,"Bukit Ibam, 26700 Rompin, Rompin, Pahang",09-4585231
3.166708,101.736419,KLINIK KESIHATAN DATO KERAMAT ,"Jalan Jelatek, 54200 Kuala Lumpur, Kuala Lumpur, WP Kuala Lumpur",03-42573333
3.169665,115.221629,KLINIK KESIHATAN LIO MATO,"Kampung Lio Mato (D/A Peg. Kesihatan Daerah Baram, Jalan Hospital), 98050 Baram, Marudi, Sarawak",085-776003
3.173590,113.037040,KLINIK KESIHATAN BINTULU,"Lebuh Raya Abang Galau, 97000 Bintulu, Bintulu, Sarawak",086-331455
3.174666,101.748503,KLINIK KESIHATAN AU 2,"Jalan AU2, Taman Seri Keramat, 54200 Ampang, Gombak, Selangor",03-42579466
3.177132,102.192914,KLINIK KESIHATAN SIMPANG PELANGAI,"Simpang Pelangai, 28740 Bentong, Bentong, Pahang",09-2480755
3.183670,101.691340,KLINIK KESIHATAN SENTUL,"Tingkat 2, Kompleks Komuniti Perniagaan, Jalan 1/48A, Bandar Baru Sentul, 51000 Sentul, Kuala Lumpur, WP Kuala Lumpur",03-40427557
3.197178,101.720417,KLINIK KESIHATAN SETAPAK,"No. 26/28, Jln. 9/23A, Medan Makmur, Off Jalan Usahawan, 53200 Setapak, Kuala Lumpur, WP Kuala Lumpur",03-41425429
3.200758,101.676703,KLINIK KESIHATAN BATU,"Batu 4 ?, Jalan Ipoh, 52100 Kuala Lumpur, Kuala Lumpur, WP Kuala Lumpur",03-62574966
3.200890,101.544751,KLINIK KESIHATAN PAYA JARAS,"Batu 15, Sungai Buloh, 47000 Petaling, Petaling, Selangor",03-61579135
3.201390,101.762110,KLINIK KESIHATAN HULU KELANG,"Jalan Datuk Abu Samah, 68000 Hulu Kelang, Ampang, Selangor",03-41056640
3.204750,102.306040,KLINIK KESIHATAN BUKIT MENDI,"Bukit Mendi, 28320 Triang, Bera, Pahang",09-2450161
3.205510,115.391370,KLINIK KESIHATAN LONG BANGA,"Rumah Panjang Long Banga (D/A Peg. Kesihatan Daerah Baram, Jalan Hospital), 98050 Baram, Marudi, Sarawak",085-776008/ 013-2865
3.218250,101.714740,KLINIK KESIHATAN GOMBAK SETIA,"No 5A/6A, Jln Kenangan Utama, Taman Kenangan, 53000 Gombak Setia, Gombak, Selangor",03-61873039
3.219822,101.654214,KLINIK KESIHATAN JINJANG ,"No.2, Jalan Jinjang Setia 3, Jinjang Utara Tambahan, 52000 Jinjang Utara, Kuala Lumpur, WP Kuala Lumpur",03-40427557
3.220640,101.577310,KLINIK KESIHATAN SUNGAI BULOH,"Lot 1853, Kg Melayu, 47000 Sungai Buloh, Gombak, Selangor",03-61401293
3.224115,101.622655,KLINIK KESIHATAN TAMAN EHSAN,"Jalan E4/16, Taman Ehsan, 51000 Kepong, Gombak, Selangor",03-62727471
3.233810,101.314800,KLINIK KESIHATAN JERAM,"Jalan Klang, 45800 Jeram, Kuala Selangor, Selangor",03-32791167
3.245324,102.423391,KLINIK KESIHATAN TRIANG,"Triang, 28300 Triang, Bera, Pahang",09-2555333
3.245470,101.674030,KLINIK KESIHATAN SELAYANG BARU,"Jln Sg. Tua Mukim Batu, 68100 Batu Caves, Gombak, Selangor",03-61878564
3.246100,101.722450,KLINIK KESIHATAN BATU 8 GOMBAK,"Batu 8, Gombak Utara, 53000 Gombak, Gombak, Selangor",03-61889704
3.255115,102.243764,KLINIK KESIHATAN CHEMOMOI,"Felda Chemomoi, 28310 Triang, Bentong, Pahang",09-2450926
3.259549,101.551652,KLINIK KESIHATAN KUANG,"JKR 9/1254, Batu 20, 48050 Rawang, Gombak, Selangor",03-60371355
3.263953,102.606729,KLINIK KESIHATAN BANDAR BERA 32,"Bandar Bera 32, 28300 Triang, Bera, Pahang",09-2461988
3.272390,101.365000,KLINIK KESIHATAN BUKIT CHERAKAH,"Jalan Rizab Masjid, Kg Bukit Cherakah, 45800 Jeram, Kuala Selangor, Selangor",03-32640014
3.295600,102.461670,KLINIK KESIHATAN PADANG LUAS,"Padang Luas, 28200 Bera, Bera, Pahang",09-2409715
3.295680,114.782210,KLINIK KESIHATAN LONG SAN,"Kampung Long San (D/A Peg. Kesihatan Daerah Baram, Jalan Hospital, Baram), 98050 Baram, Marudi, Sarawak",013-2865610
3.317610,101.414710,KLINIK KESIHATAN IJOK,"JKR 1087 Jalan Simpang Tiga, 45600 Ijok, Kuala Selangor, Selangor",03-32791167
3.319920,101.472505,KLINIK KESIHATAN BATU ARANG,"JKR G/1325, 48100 Batu Arang, Gombak, Selangor",03-60352287
3.321540,101.577470,KLINIK KESIHATAN RAWANG,"Jalan RP5, Rawang Perdana 1, 48000 Rawang, Gombak, Selangor",03-60919055
3.328910,114.596903,KLINIK KESIHATAN LONG NAAH,"Kampung Long Naah (D/A Peg. Kesihatan Daerah Baram, Jalan Hospital), 98050 Baram, Marudi, Sarawak",013-2865604
3.336840,101.250000,KLINIK KESIHATAN KUALA SELANGOR,"Jalan Klinik, 45000 Kuala Selangor, Kuala Selangor, Selangor",03-32891142
3.354456,103.032088,KLINIK KESIHATAN RPS RUNCHANG,"RPS Runchang, 26690 Pekan, Pekan, Pahang",09-4530791
3.357817,102.064753,KLINIK KESIHATAN TELEMONG,"Telemong, 28620 Karak, Bentong, Pahang",09-2399972
3.362310,101.602790,KLINIK KESIHATAN SERENDAH,"Serendah, 48200 Serendah, Hulu Selangor, Selangor",03-60812500
3.374560,102.945780,KLINIK KESIHATAN CHINI,"Felda Chini 1, 26690 Pekan, Pekan, Pahang",09-4566333
3.374969,102.631531,KLINIK KESIHATAN PURUN,"Purun, 28200 Bera, Bera, Pahang",09-2481585
3.379410,101.407740,KLINIK KESIHATAN BESTARI JAYA,"Lot 1867 Jalan Kampong, 45600 Bestari Jaya, Kuala Selangor, Selangor",03-32719151
3.418010,102.030500,KLINIK KESIHATAN KARAK,"Jalan Besar, 28600 Karak, Bentong, Pahang",09-2311245
3.420979,115.153885,KLINIK KESIHATAN LONG LELLANG,"Kampung Long Lellang (D/A Peg. Kesihatan Daerah Baram, Jalan Hospital), 98050 Baram, Marudi, Sarawak",085-755511
3.421130,101.173780,KLINIK KESIHATAN TANJUNG KARANG,"Jalan Sungai Kajang, 45500 Tanjung Karang, Kuala Selangor, Selangor",03-32698355
3.435175,101.656971,KLINIK KESIHATAN ULU YAM BHARU,"Jalan Besar, 44300 Hulu Yam Bharu, Hulu Selangor, Selangor",03-6064257
3.446040,102.423713,KLINIK KESIHATAN TEMERLOH,"Temerloh, 28000 Temerloh, Temerloh, Pahang",09-2961275
3.448402,114.116675,KLINIK KESIHATAN LONG LOYANG,"Kampung Long Loyang (D/A Peg. Kesihatan Daerah Baram, Jalan Hospital), 98050 Baram, Marudi, Sarawak",011-295191
3.479430,102.592200,KLINIK KESIHATAN CHENOR,"Chenor, 28100 Maran, Maran, Pahang",09-2995391
3.480710,102.342050,KLINIK KESIHATAN BANDAR MENTAKAB,"Bandar Mentakab, 28400 Mentakab, Temerloh, Pahang",09-2771845
3.484350,114.429130,KLINIK KESIHATAN LONG PILLAH,"Kampung Long Pilah (D/A Peg. Kesihatan Daerah, Daerah Baram, Jalan Hospital, Baram), 98050 Baram, Marudi, Sarawak",013-2865605
3.489294,103.393428,KLINIK KESIHATAN BANDAR PEKAN,"Bandar Pekan, 26600 Pekan, Pekan, Pahang",09-4227291
3.489294,103.393428,KLINIK KESIHATAN PEKAN,"Pekan, 26600 Pekan, Pekan, Pahang",09-4221044
3.493259,102.531304,KLINIK KESIHATAN PEKAN AWAH,"Pekan Awah, 28000 Maran, Maran, Pahang",09-2986333
3.497730,101.636130,KLINIK KESIHATAN RASA,"Rasa, 44200 Rasa, Hulu Selangor, Selangor",03-60573264
3.499420,102.184890,KLINIK KESIHATAN LANCHANG,"Lanchang, 28500 Lanchang, Temerloh, Pahang",09-2803233
3.509850,101.102590,KLINIK KESIHATAN SEKINCHAN,"Jalan Pekan, 45400 Sekinchan, Sabak Bernam, Selangor",03-32410331
3.526810,102.422430,KLINIK KESIHATAN SANGGANG,"Sanggang, 28020 Temerloh, Temerloh, Pahang",09-2846333
3.530563,103.202001,KLINIK KESIHATAN PADANG RUMBIA,"Kampung Padang Rumbia, 26650 Pekan, Pekan, Pahang",09-4281205
3.536348,101.960443,KLINIK KESIHATAN MEMPAGA,"Felda Mempaga, 28600 Karak, Bentong, Pahang",09-2377954
3.539810,101.902160,KLINIK KESIHATAN BENTONG,"Batu Satu Jalan Tras, 28700 Bentong, Bentong, Pahang",09-2220134
3.546290,103.383000,KLINIK KESIHATAN PERAMU JAYA,"Peramu Jaya, 26600 Pekan, Pekan, Pahang",09-4269609
3.560580,102.690840,KLINIK KESIHATAN PEKAN TAJAU,"Pekan Tajau, 28000 Maran, Maran, Pahang",09-4774782
3.567309,115.553627,KLINIK KESIHATAN PA'DALIH,"Jalan Kayu Balak (D/A  Peg. Kesihatan Daerah Baram, Jalan Hospital), 98050 Baram, Marudi, Sarawak",085-755511
3.568967,115.553083,KLINIK KESIHATAN TANG LAPADAN,"Tang Lapadan (D/A Peg. KesihatanDaerah Lawas, Jalan Hospital), 98850 Lawas, Lawas, Sarawak",085-283781
3.579173,102.382642,KLINIK KESIHATAN KERDAU,"Kerdau, 28020 Temerloh, Temerloh, Pahang",09-2847003
3.584740,102.774250,KLINIK KESIHATAN MARAN,"Maran, 26500 Maran, Maran, Pahang",09-4771333
3.587491,114.116242,KLINIK KESIHATAN LONG JEGAN,"Kampung Long Jegan (D/A Peg. Kesihatan Daerah, Daerah Baram, Jalan Hospital, Baram), 98050 Baram, Marudi, Sarawak",
3.588010,114.427199,KLINIK KESIHATAN LONG MIRI,"Kampung Long Miri (D/A Peg. Kesihatan Daerah Baram, Jalan Hospital), 98050 Baram, Marudi, Sarawak",013-2865606
3.613640,114.151830,KLINIK KESIHATAN LONG TERAN,"Kampung Long Teran (D/A Peg. Kesihatan Daerah Baram, Jalan Hospital), 98050 Baram, Marudi, Sarawak",
3.636780,101.572770,KLINIK KESIHATAN KALUMPANG,"Kalumpang, 44100 Kalumpang, Hulu Selangor, Selangor",03-60491426
3.638250,113.379320,KLINIK KESIHATAN NYALAU,"Kampung Tengah Nyalau, 97000 Bintulu, Bintulu, Sarawak",085-776002
3.660610,101.891090,KLINIK KESIHATAN LURAH BILUT (FELDA),"Lurah Bilut, 28800 Bentong, Bentong, Pahang",09-2377333
3.675980,100.989010,KLINIK KESIHATAN SUNGAI BESAR,"Jalan Sungai Limau, 45300 Sungai Besar, Sabak Bernam, Selangor",03-32241358
3.680846,101.386751,KLINIK KESIHATAN SOEHARTO,"Soeharto, 44101 Kuala Kubu Baru, Hulu Selangor, Selangor",03-60461003
3.688130,101.524392,KLINIK KESIHATAN TANJUNG MALIM,"Pekan Tanjung Malim, 35900 Tanjung Malim, Batang Padang, Perak",05-4596333
3.689875,102.004253,KLINIK KESIHATAN LEMBAH KLAU,"Lembah Klau, 27600 Raub, Raub, Pahang",09-3688333
3.707780,103.108620,KLINIK KESIHATAN GAMBANG,"Gambang, 26300 Kuantan, Kuantan, Pahang",09-54846111
3.709520,102.365370,KLINIK KESIHATAN KUALA KRAU,"Kuala Krau, 28050 Temerloh, Temerloh, Pahang",09-2861242
3.711193,101.753769,KLINIK KESIHATAN BUKIT FRASER,"Bukit Fraser, 49000 Bukit Fraser, Raub, Pahang",09-3622333
3.712650,113.625350,KLINIK KESIHATAN SUAI TEGAGENG,"Kampung Suai Tegageng (D/A Pej. Kesihatan Bahagian Miri, Jalan Temenggong Oyong Lawai Jau), 98000 Niah, Miri, Sarawak",085-740047/ 011-2182
3.715155,102.612708,KLINIK KESIHATAN JENGKA 2,"Felda Jengka, 26400 Bandar Jengka, Maran, Pahang",09-4674320
3.718530,102.475600,KLINIK KESIHATAN JENGKA 22,"Felda Jengka 22, 26400 Bandar Jengka, Maran, Pahang",09-4864423
3.732350,101.445140,KLINIK KESIHATAN SUNGAI SELISEK,"Sungai Selisek, 44020 Kuala Kubu Baru, Hulu Selangor, Selangor",05-4541352
3.740520,115.467230,KLINIK KESIHATAN BARIO,"Pekan Bario (D/A Peg. Kesihatan Daerah Baram, Jalan Hospital), 98050 Baram, Marudi, Sarawak",085-791047
3.749379,101.056794,KLINIK KESIHATAN BAGAN TERAP,"Jalan Bagan Terap, 45300 Sungai Besar, Sabak Bernam, Selangor",03-32162722
3.753250,103.203860,KLINIK KESIHATAN JAYA GADING,"Jaya Gading, 26070 Kuantan, Kuantan, Pahang",09-5384252
3.762499,114.405176,KLINIK KESIHATAN LONG LAMA,"Kampung Long Lama (D/A Peg. Kesihatan Daerah Baram, Jalan Hospital), 98050 Baram, Marudi, Sarawak",085-755511
3.765780,102.542610,KLINIK KESIHATAN BANDAR JENGKA,"Bandar Jengka, 26400 Maran, Maran, Pahang",09-4677198
3.777211,103.275670,KLINIK KESIHATAN PAYA BESAR,"Jalan Pintasan Kuantan-Gambang, Paya Besar, 25100 Kuantan, Kuantan, Pahang",09-5395436
3.779994,103.283223,KLINIK KESIHATAN KURNIA,"Batu 3, Jalan Gambang, 25150 Kuantan, Kuantan, Pahang",09-5361333
3.788330,100.886940,KLINIK KESIHATAN SUNGAI AIR TAWAR,"Jalan Besar, Sungai Air Tawar, 45100 Sabak Bernam, Sabak Bernam, Selangor",03-32136227
3.788912,103.268922,KLINIK KESIHATAN PERMATANG BADAK,"Permatang Badak, 25150 Kuantan, Kuantan, Pahang",09-5364626
3.792727,113.632791,KLINIK KESIHATAN JAMBATAN SUAI ,"Jambatan Suai (Pej. Kesihatan Bahagian  Miri), 98000 Miri, Miri, Sarawak",085-474722
3.794740,113.747690,KLINIK KESIHATAN BATU NIAH,"Batu Niah, 98200 Batu Niah, Miri, Sarawak",085-737710
3.794918,114.732075,KLINIK KESIHATAN LONG BEDIAN,"Rumah Panjang Long Bedian (D/A Peg. Kesihatan Daerah Baram, Jalan Hospital), 98050 Baram, Marudi, Sarawak",011-295192
3.802000,114.907333,KLINIK KESIHATAN LONG KEVOK,"Kampung Long Kevok (D/A Peg. Kesihatan Daerah Baram, Jalan Hospital), 98050 Baram, Marudi, Sarawak",013-2865608
3.816590,100.843100,KLINIK KESIHATAN PARIT BARU,"Jalan Masjid, 45100 Parit Baru, Sabak Bernam, Selangor",03-32136223
3.821784,103.324946,KLINIK KESIHATAN BANDAR KUANTAN,"Jalan Lim Hoe Lek, 25200 Kuantan, Kuantan, Pahang",09-5132055
3.823146,101.933624,KLINIK KESIHATAN ULU GALI,"Kampung Ulu Gali, 27600 Raub, Raub, Pahang",09-3686355
3.837430,101.401430,KLINIK KESIHATAN SLIM RIVER,"Jalan Indah, 35800 Slim River, Batang Padang, Perak",05-4527679/ 05-43231
3.843310,101.294890,KLINIK KESIHATAN GUNUNG BESOUT,"Jalan Klinik, Gunung Besout, 35600 Sungkai, Batang Padang, Perak",05-4311092
3.850060,103.362594,KLINIK KESIHATAN BESERAH,"Berserah, 26100 Kuantan, Kuantan, Pahang",09-5445633
3.854850,102.491930,KLINIK KESIHATAN JENGKA 8,"Felda Jengka 8, 26400 Jerantut, Jerantut, Pahang",09-2081555
3.859250,114.591780,KLINIK KESIHATAN LONG BEMANG,"Rumah Panjang Long Bemang (D/A Peg. Kesihatan Daerah Baram, Jalan Hospital), 98050 Baram, Marudi, Sarawak",085-773005/ 019-8386
3.863783,114.244486,KLINIK KESIHATAN LONG TERU,"Kampung Long Teru (D/A Peg. Kesihatan Daerah Baram, Jalan Hospital), 98050 Baram, Marudi, Sarawak",085-775100
3.873910,113.888696,KLINIK KESIHATAN LADANG TIGA,"Pekan Ladang Tiga (D/A Peg. Kesihatan Bahagian Miri, Jalan Temenggong Oyong Lawai Jau), 98000 Subis, Miri, Sarawak",085-496001
3.876417,100.934250,KLINIK KESIHATAN HUTAN MELINTANG,"Jalan Hutan Melintang, 36400 Hutan Melintang, Hilir Perak, Perak",05-6411475
3.880825,103.263502,KLINIK KESIHATAN BUKIT GOH (FELDA),"Bukit Goh, 26050 Kuantan, Kuantan, Pahang",09-5478355
3.890387,102.596993,KLINIK KESIHATAN SUNGAI TEKAM UTARA,"Kampung Sungai Tekam Utara, 27060 Jerantut, Jerantut, Pahang",09-4811526
3.890583,100.854306,KLINIK KESIHATAN SUNGAI SUMUN,"Kampung Sungai Sumun, 36300 Sungai Sumun, Hilir Perak, Perak",05-6489355
3.892440,101.376300,KLINIK KESIHATAN TROLAK (FELDA),"Jalan Besar Trolak Selatan, Felda Trolak Selatan, 35600 Sungkai, Batang Padang, Perak",05-4323136
3.901050,101.895470,KLINIK KESIHATAN DONG,"Ulu Dong, 27400 Raub, Raub, Pahang",09-3658355
3.902028,100.789110,KLINIK KESIHATAN SELEKOH,"Jalan Bagan Datoh, 36100 Selekoh, Hilir Perak, Perak",05-6489333
3.905966,102.795799,KLINIK KESIHATAN LEPAR UTARA 4,"Lepar Utara 4, 26400 Jengka, Jerantut, Pahang",09-4741523
3.908430,100.717380,KLINIK KESIHATAN SUNGAI TIANG,"Sungai Tiang, 36100 Bagan Datoh, Hilir Perak, Perak",04-7596412
3.911918,101.811647,KLINIK KESIHATAN CHEROH,"Cheroh, 27600 Raub, Raub, Pahang",09-3697228
3.925320,103.072510,KLINIK KESIHATAN SUNGAI LEMBING,"Kampung Sungai Lembing, 26070 Kuantan, Kuantan, Pahang",09-5411598
3.932889,103.372207,KLINIK KESIHATAN BALOK,"Balok, 26100 Kuantan, Kuantan, Pahang",09-5834533
3.948748,114.541716,KLINIK KESIHATAN LONG PANAI,"Kampung Long Panai (D/A Peg. Kesihatan Daerah Baram, Jalan Hospital), 98050 Baram, Marudi, Sarawak",085-770100
3.949779,102.212344,KLINIK KESIHATAN DAMAK,"Damak, 27300 Jerantut, Jerantut, Pahang",09-2681488
3.973911,115.069158,KLINIK KESIHATAN LONG SERIDAN,"Kampung Long Seridan (Pej. Kesihatan Bahagian, Bahagian Miri), 98000 Baram, Marudi, Sarawak",085-474722
3.977317,114.094704,KLINIK KESIHATAN BELURU,"Beluru (D/A Peg. Kesihatan Daerah Baram, Jalan Hospital), 98050 Baram, Marudi, Sarawak",085-743216
3.978230,100.786510,KLINIK KESIHATAN BAGAN DATOH,"Pekan Bagan Datoh, 36100 Bagan Datoh, Hilir Perak, Perak",05-6466233
3.981466,101.904628,KLINIK KESIHATAN JERUAS,"Jeruas, 27660 Raub, Raub, Pahang",09-3657333
3.984590,101.782565,KLINIK KESIHATAN TERSANG,"Tersang, 27610 Raub, Raub, Pahang",09-3403086
3.986524,115.622922,KLINIK KESIHATAN BA KELALAN,"Pekan Ba Kelalan(D/A Peg. Kesihatan Daerah Lawas, Jalan Hospital), 98850 Lawas, Lawas, Sarawak",085-283781
3.998480,101.308890,KLINIK KESIHATAN SUNGKAI,"Jalan Pekan Sungkai, 35600 Sungkai, Batang Padang, Perak",05-4386355
4.013210,101.960570,KLINIK KESIHATAN BENTA,"Benta, 27310 Benta, Lipis, Pahang",09-3239211
4.028198,101.018123,KLINIK KESIHATAN TELOK INTAN,"Jalan Bandar, 36000 Telok Intan, Hilir Perak, Perak",05-6214020
4.032355,114.797241,KLINIK KESIHATAN TAMAN NEGARA MULU,"Taman Negara Mulu (D/A Peg. Kesihatan Daerah, Daerah Baram, Jalan Hospital, Baram), 98050 Baram, Marudi, Sarawak",085-792115/ 011-2212
4.038843,102.380858,KLINIK KESIHATAN PADANG PIOL,"Padang Piol, 27040 Jerantut, Jerantut, Pahang",09-2668448
4.040373,101.954873,KLINIK KESIHATAN JERKOH,"Jerkoh, 27300 Benta, Lipis, Pahang",09-3239440
4.058100,113.847370,KLINIK KESIHATAN BEKENU,"Kampung Bekenu, 98150 Miri, Miri, Sarawak",085-719003
4.066400,102.317990,KLINIK KESIHATAN KUALA TEMBELING,"Kuala Tembeling, 27020 Jerantut, Jerantut, Pahang",09-3086033
4.073710,102.269170,KLINIK KESIHATAN MELA,"Mela, 27200 Kuala Lipis, Lipis, Pahang",09-3129424
4.079833,101.149667,KLINIK KESIHATAN LANGKAP,"Langkap, 36700 Langkap, Hilir Perak, Perak",05-6591473
4.090167,100.946850,KLINIK KESIHATAN ULU DEDAP,"Jalan Seberang Perak, Kampung Ulu Dedap, 36000 Teluk Intan, Perak Tengah, Perak",05-6551384
4.092792,113.960184,KLINIK KESIHATAN TUN HAJI OPENG,"Jalan Tun Haji Openg (D/A Pej. Kesihatan Bahagian Miri, Jalan Temenggong Oyong Lawai Jau), 98000 Sibuti, Miri, Sarawak",085-424722
4.114722,101.284833,KLINIK KESIHATAN BIDOR,"Jalan Besar Bidor, 35500 Bidor, Batang Padang, Perak",05-4341480
4.123192,103.175590,KLINIK KESIHATAN CHERUL,"Lot 1539,Felda Cherul, 24000 Mukim Bandi, Kemaman, Terengganu",09-8730895
4.124250,103.243264,KLINIK KESIHATAN CHENEH,"Lot 168, Jalan Masjid Cheneh, 24000 Mukim Bandi, Kemaman, Terengganu",09-8730100
4.132556,101.102778,KLINIK KESIHATAN CHENDERONG BALAI,"Chenderong Balai, 36600 Chenderong Balai, Hilir Perak, Perak",05-6511652
4.135710,100.730600,KLINIK KESIHATAN LEKIR,"Batu 8, 32020 Lekir, Manjung, Perak",05-6791415/ 1527
4.144508,100.900830,KLINIK KESIHATAN CHANGKAT LADA,"Felcra Changkat Lada, Kampung Gajah, 36800 Changkat Lada, Perak Tengah, Perak",05-6551355/ 05-65515
4.182740,100.942150,KLINIK KESIHATAN KAMPUNG GAJAH,"Pekan  Kampung Gajah, 36800 Kampung Gajah, Perak Tengah, Perak",05-6311185
4.187040,101.265540,KLINIK KESIHATAN TAPAH,"Jalan Damai, 35000 Tapah, Batang Padang, Perak",05-4010260
4.193621,101.263601,KLINIK KESIHATAN TAPAH ROAD,"Pekan Tapah, 35000 Batang Padang, Batang Padang, Perak",05-4180370
4.212010,100.571440,KLINIK KESIHATAN PULAU PANGKOR,"Jalan Pasir Bogak, Pekan Pulau Pangkor, 32300 Pulau Pangkor, Manjung, Perak",05-6851234/ 4048/ 21
4.215717,103.436028,KLINIK KESIHATAN KUALA KEMAMAN,"Lot 7259, Jalan Kuala Kemaman, 24000 Chukai, Kemaman, Terengganu",09-8683659
4.215724,115.589957,KLINIK KESIHATAN LONG SEMADOH,"Long Semandoh (D/A Peg. Kesihatan Daerah Lawas, Jalan Hospital), 98850 Lawas, Lawas, Sarawak",085-283781
4.217570,101.797810,KLINIK KESIHATAN SUNGAI KOYAN,"Kampung Sungai Koyan, 27200 Lipis, Lipis, Pahang",09-3401533
4.223920,100.702810,KLINIK KESIHATAN SITIAWAN,"Jalan Dato' Ahmad Yunus, Pekan Sitiawan, 32000 Sitiawan, Manjung, Perak",05-6914355
4.234362,101.988972,KLINIK KESIHATAN PADANG TENGKU,"Padang Tengku, 27100 Lipis, Lipis, Pahang",09-3291533
4.239422,103.418272,KLINIK KESIHATAN CHUKAI,"Lot 3115, Jalan Sentosa, 24000 Chukai, Kemaman, Terengganu",09-8591619
4.239574,103.398465,KLINIK KESIHATAN BATU 2 ?,"Jalan Air Putih, 24000 Chukai, Kemaman, Terengganu",09-8581540
4.246290,101.031328,KLINIK KESIHATAN AIR KUNING,"Jalan Tanjung Tualang, Air Kuning, 36800 Kampung Gajah, Perak Tengah, Perak",05-4780897
4.250000,117.667000,"KLINIK KESIHATAN SUNGAI TAMANG, TAWAU","Kampung Sungai Tamang, 91008 Tawau, Tawau, Sabah",089-797100
4.256537,101.920825,KLINIK KESIHATAN BUKIT BETONG,"Bukit Betong, 27200 Lipis, Lipis, Pahang",09-3291212
4.271064,103.212217,KLINIK KESIHATAN AIR PUTEH,"Lot 2583, Jalan Air Puteh, 24050 Mukim Tebak, Kemaman, Terengganu",09-8593355
4.279409,100.880362,KLINIK KESIHATAN LAMBOR KIRI,"Jalan Teluk Sena, 32900 Lambor Kiri, Perak Tengah, Perak",05-3761855
4.285551,101.805265,KLINIK KESIHATAN POS BETAU,"Kampung Pos Betau, 27200 Kuala Lipis, Lipis, Pahang",012-9869205
4.289038,100.748947,KLINIK KESIHATAN AYER TAWAR,"Jalan Besar,  Pekan Ayer Tawar, 32400 Ayer Tawar, Manjung, Perak",05-6723333
4.298333,101.156944,KLINIK KESIHATAN KAMPAR,"Jalan Degong, 31900 Kinta, Kampar, Perak",05-4667011
4.322210,100.952508,KLINIK DESA FELCRA NASARUDIN,"Bota, 32600 Bota, Perak Tengah, Perak",05-3711603
4.322620,118.093170,KLINIK KESIHATAN APAS BALUNG,"Jalan Apas Balung, 91008 Tawau, Tawau, Sabah",089-951029
4.325278,101.055000,KLINIK KESIHATAN TANJUNG TUALANG,"Pekan Tanjung Tualang, 31800 Tanjung Tualang, Kinta, Perak",05-3609355
4.333181,103.486136,KLINIK KESIHATAN KIJAL,"Lot 2187, Jalan Pantai Penunjuk, 24100 Kijal, Kemaman, Terengganu",09-8633204
4.356850,100.873000,KLINIK KESIHATAN BOTA KIRI,"Jalan Bota Kiri, 32600 Bota Kiri, Perak Tengah, Perak",05-3761355
4.357650,101.122130,KLINIK KESIHATAN MALIM NAWAR,"Jalan Malim Nawar, 31700 Malim Nawar, Kampar, Perak",05-4771818
4.367197,113.968928,KLINIK KESIHATAN BALAI (BAKAM),"Balai (Peg. Kesihatan Bahagian Sarikei, Wisma Persekutuan, Sarikei), 96100 Sarikei, Sarikei, Sarawak",084-651077
4.380972,103.323822,KLINIK KESIHATAN SRI BANDI,"Lot 2658, Jalan Bunga Raya , 24200 Hulu Chukai, Kemaman, Terengganu",09-8676254
4.381654,100.691290,KLINIK KESIHATAN CHANGKAT KERUING,"Kampung Changkat Kruing, 32500 Changkat Kruing, Manjung, Perak",05-6751553
4.382527,102.402105,KLINIK KESIHATAN KUALA TAHAN,"Kuala Tahan, 27020 Jerantut, Jerantut, Pahang",09-2667468
4.388000,114.900520,KLINIK KESIHATAN KUALA MEDALAM,"Pekan Kuala Mendalam (Peg. Kesihatan Bahagian Limbang, Jalan Pandaruan), 98700 Limbang, Limbang, Sarawak",085-211166
4.395610,113.991640,KLINIK KESIHATAN BANDAR MIRI,"Bandar Miri, Jalan Merbau, 98000 Miri, Miri, Sarawak",085-412322
4.398840,101.079330,KLINIK KESIHATAN KOTA BHARU,"Jalan Kota Bharu, 31610 Gopeng, Kampar, Perak",05-3594355
4.413610,117.777780,KLINIK KESIHATAN MEROTAI BESAR,"Jalan SMK Merotai, 91008 Tawau, Tawau, Sabah",089-902601
4.423056,100.993056,KLINIK KESIHATAN TRONOH,"Jalan Tronoh, 31750 Tronoh, Kinta, Perak",05-3676355
4.427736,103.452517,KLINIK KESIHATAN KEMASIK,"Lot 68, Jalan Kuala Terengganu-Kemaman, 24200 Kemasik, Kemaman, Terengganu",09-8640033
4.444080,100.630730,KLINIK KESIHATAN PANTAI REMIS,"Jalan Besar, Pekan Pantai Remis, 34900 Pantai Remis, Manjung, Perak",05-6771316
4.453730,101.165130,KLINIK KESIHATAN GOPENG,"Jalan Dr.Raja Nazrin, 31600 Gopeng, Kampar, Perak",05-3593355
4.463890,118.668610,"KLINIK KESIHATAN PULAU BUM-BUM, SEMPORNA","Kg Pulau Bum-Bum, 91308 Semporna, Semporna, Sabah",089-792003
4.469025,114.914934,KLINIK KESIHATAN NANGA MEDAMIT,"Pekan Nanga Mendamit (Peg. Kesihatan Bahagian Limbang, Jalan Pandaruan), 98700 Limbang, Limbang, Sarawak",085-240012
4.471260,101.379180,KLINIK KESIHATAN TANAH RATA,"Tanah Rata, 39000 Tanah Rata, Cameron Highlands, Pahang",05-4911257
4.474720,117.663060,"KLINIK KESIHATAN FELDA UMAS UMAS, TAWAU","Tingkat 7, Bangunan Persekutuan, Peti Surat 990, 91008 Tawau, Tawau, Sabah",089-926540
4.476480,100.909750,KLINIK KESIHATAN PARIT,"Jalan Pejabat Pos, 32800 Parit, Perak Tengah, Perak",05-3772689
4.480930,100.638150,KLINIK KESIHATAN PENGKALAN BARU,"Kampung Pengkalan Baru, 34900 Pantai Remis, Manjung, Perak",05-6774350
4.481240,118.606050,KLINIK KESIHATAN SEMPORNA,"Kg Semporna (Pejabat Kesihatan Semporna, Peti Surat no 395), 91308 Semporna, Semporna, Sabah",089-781695
4.482840,114.023710,KLINIK KESIHATAN TUDAN,"Jalan Tudan Permyjaya, 98100 Lutong, Miri, Sarawak",085-654404
4.497290,100.788980,KLINIK KESIHATAN BRUAS,"Jalan Besar, 32700 Bruas, Manjung, Perak",05-6743333
4.501045,102.646680,KLINIK KESIHATAN KAMPUNG BANTAL,"Kampung Bantal, 27020 Hulu Tembeling, Jerantut, Pahang",09-2661905
4.503642,103.440789,KLINIK KESIHATAN KERTEH,"Lot 455, Jalan Bandar Baru Kerteh, 24300 Kerteh, Kemaman, Terengganu",09-8261333
4.534720,114.944720,KLINIK KESIHATAN NANGA MERIT ,"Kampung Nanga Merit (Peg. Kesihatan Bahagian Limbang, Jalan Pandaruan, Limbang), 98700 Limbang, Limbang, Sarawak",011-212039
4.552892,115.488120,KLINIK KESIHATAN LONG SUKANG,"Long Sukang (D/A Peg. Kesihatan Daerah Lawas, Jalan Hospital), 98850 Lawas, Lawas, Sarawak",011-295400
4.555890,115.066040,KLINIK KESIHATAN PENGANAN,"Penganan (Peg. Kesihatan Bahagian Limbang, Jalan Pandaruan), 98700 Limbang, Limbang, Sarawak",085-240015
4.562720,101.050530,KLINIK KESIHATAN MENGLEMBU,"Jalan Menglembu Timur 10, Pekan Mengelembu, 31450 Ipoh, Kinta, Perak",05-2815882
4.562890,101.112410,KLINIK KESIHATAN GUNUNG RAPAT,"Jalan Gunung Rapat, 31350 Ipoh, Kinta, Perak",05-3115813
4.571389,103.311389,KLINIK KESIHATAN KETENGAH JAYA,"Lot 2124, Jalan Ketengah Jaya, 23300 Dungun, Dungun, Terengganu",09-8200233
4.575100,101.085120,KLINIK KESIHATAN PASIR PINJI,"Jalan Bunga Raya, Pasir Pinji, 31650 Ipoh, Kinta, Perak",05-3214172
4.577897,100.926631,KLINIK KESIHATAN BEKOR,"Bekor, 33800 Manong, Kuala Kangsar, Perak",05-74311575
4.585290,101.050640,KLINIK KESIHATAN BUNTUNG,"Lot 30943, Jalan Desa Rishah, 30100 Ipoh, Kinta, Perak",05-2824421
4.591333,100.879683,KLINIK KESIHATAN MANONG,"Jalan Rumah Awam II, 33800 Kuala Kangsar, Kuala Kangsar, Perak",05-7430355
4.593889,101.078056,KLINIK KESIHATAN BIJIH TIMAH,"Jalan Treacher, 31350 Ipoh, Kinta, Perak",05-2548615
4.598190,100.681440,KLINIK KESIHATAN SUNGAI KERANG,"Jalan Pantai Remis, 34800 Trong, Larut Matang, Perak",05-8544255
4.602778,101.086944,KLINIK KESIHATAN GREENTOWN,"Jalan Raja Musa Aziz, 30450 Ipoh, Kinta, Perak",05-2530801
4.614167,101.056667,KLINIK KESIHATAN JELAPANG,"Jalan Jelapang, Pekan Jelapang, 30020 Ipoh, Kinta, Perak",05-5268566
4.616667,101.115278,KLINIK KESIHATAN KAMPUNG SIMEE,"Jalan Kompleks Sukan, Kampung Simee, 31400 Ipoh, Kinta, Perak",05-5474202
4.618080,101.071010,KLINIK KESIHATAN MANJOI,"Kampung Manjol, Jalan Masjid, 30100 Ipoh, Kinta, Perak",05-5263220
4.625000,103.206944,KLINIK KESIHATAN ALMUKTAFI BILLAH SHAH,"Lot 467, Jalan Almuktafi Billah Shah, 23400 Jengai, Dungun, Terengganu",09-8221333
4.631389,103.437500,KLINIK KESIHATAN PAKA,"Lot 7736 & 2166, Jalan Dungun Kuantan, 23100 Paka, Dungun, Terengganu",09-8271333
4.659445,114.827844,KLINIK KESIHATAN BATU DANAU,"Batu Danau (d/a Pejabat Kesihatan Bahagian Limbang), 98700 Limbang, Limbang, Sarawak",085-240010
4.665540,101.157430,KLINIK KESIHATAN TANJUNG RAMBUTAN,"Jalan Tambun, 31650 Tanjung Rambutan, Kinta, Perak",05-5331355
4.679000,115.710160,"KLINIK KESIHATAN MELIGAN, SIPITANG","Kampung Meligan, 89857 Meligan, Sipitang, Sabah",087-821066
4.690787,102.004340,KLINIK KESIHATAN MERAPOH,"Merapoh, 27210 Kuala Lipis, Lipis, Pahang",09-9122377
4.704770,100.718450,KLINIK KESIHATAN TRONG,"Trong, 34800 Trong, Larut Matang, Perak",05-8577155
4.705061,116.485402,"KLINIK KESIHATAN SEPULOT, NABAWAN","Pekan Sepulot, 89957 Pensiangan, Nabawan, Sabah",087-773005
4.731944,101.134444,KLINIK KESIHATAN CHEMOR,"Jalan Tanah Hitam, Kampung Chemor, 31200 Chemor, Kinta, Perak",05-2011355
4.755278,103.185556,KLINIK KESIHATAN BUKIT BESI,"Lot 6528, Jalan Bukit Besi, 23200 Besut, Dungun, Terengganu",09-8337236
4.761389,103.413889,KLINIK KESIHATAN KUALA DUNGUN,"Lot 9783, Jalan Alor Tembesu, 23000 Kuala Dungun, Dungun, Terengganu",09-8458820
4.774700,100.849983,KLINIK KESIHATAN PADANG RENGAS,"Pekan Padang Rengas, 33700 Padang Rengas, Kuala Kangsar, Perak",05-7584355
4.785560,115.276210,KLINIK KESIHATAN TRUSAN,"Pekan Trusan, 98850 Lawas, Lawas, Sarawak",011-295404
4.786410,100.724330,KLINIK KESIHATAN CHANGKAT JERING,"Pekan Changkat Jering, Jalan Kuala Kangsar, 34850 Changkat Jering, Larut Matang, Perak",05-8553013
4.815825,101.080558,KLINIK KESIHATAN SUNGAI SIPUT,"Jalan Ipoh, Pekan Sungai Siput, 31100 Sungai Siput, Kuala Kangsar, Perak",05-5982355
4.816944,103.420556,KLINIK KESIHATAN KUALA ABANG,"Lot 65, Jalan Klinik Kuala Abang, 23050 Kuala Abang, Dungun, Terengganu",09-8442333
4.832567,100.967117,KLINIK KESIHATAN KARAI,"Jalan Besar, Kampung Karai, 33600 Enggor, Kuala Kangsar, Perak",05-7576355
4.834167,100.741667,KLINIK KESIHATAN POKOK ASSAM,"Jalan Menteri Besar, Pekan Pokok Assam, 34000 Taiping, Larut Matang, Perak",05-8067177
4.838360,100.632900,KLINIK KESIHATAN KUALA SEPETANG,"Kampung Kuala Sepetang, 34600 Kuala Sepetang, Larut Matang, Perak",05-8581355
4.847500,100.745556,KLINIK KESIHATAN TAIPING,"Jalan Tupai, 34000 Taiping, Larut Matang, Perak",05-8041555
4.852130,115.888630,"KLINIK KESIHATAN KUALA TOMANI, TENOM ","Kampung Kuala Tonomi, 89907 Tenom, Tenom, Sabah",087-741004
4.854540,115.404700,KLINIK KESIHATAN LAWAS,"Jalan Hospital, 98850 Lawas, Lawas, Sarawak",085-283781
4.862723,103.030944,KLINIK KESIHATAN FELDA MENGKAWANG,"Lot 5442, Jalan Kg Tanjong Ajil, 21800 Kuala Berang, Hulu Terengganu, Terengganu",09-6881896
4.879970,101.965330,KLINIK KESIHATAN GUA MUSANG,"Gua Musang, 18300 Gua Musang, Gua Musang, Kelantan",09-9121333
4.892264,115.206373,KLINIK KESIHATAN SUNDAR,"Pekan Sundar, 98800 Lawas, Lawas, Sarawak",085-264233
4.900583,101.787778,KLINIK KESIHATAN KUALA BETIS,"Kuala Betis, 18300 Gua Musang, Gua Musang, Kelantan",09-7416732
4.903262,100.723102,KLINIK KESIHATAN KAMUNTING,"Jalan Ekpo, Pekan Kemunting, 34600 Kamunting, Larut Matang, Perak",05-8913751
4.905000,103.190000,KLINIK KESIHATAN JERANGAU,"Lot 1462, Jalan Jerangau, 21820 Jerangau, Dungun, Terengganu",09-8384333
4.916390,115.933330,"KLINIK KESIHATAN KEMABONG, TENOM","Pekan Kembong, 89907 Kemabong, Tenom, Sabah",087-736896
4.925012,100.624255,KLINIK KESIHATAN SELINSING,"Kampung Selinsing, Simpang Ampat, 34400 Semanggol, Kerian, Perak",05-8904542
4.931700,100.925710,KLINIK KESIHATAN SAUK,"Jalan Besar Lenggong, 33500 Kuala Kangsar, Kuala Kangsar, Perak",05-7511355
4.935269,101.099898,KLINIK KESIHATAN LINTANG,"Kampung Lintang, 31110 Sungai Siput Utara, Kuala Kangsar, Perak",05-5912255
4.951086,100.619814,KLINIK KESIHATAN KUALA GULA,"Kuala Gula, 34350 Kuala Gula, Kerian, Perak",05-8908657
4.952106,115.424752,KLINIK KESIHATAN KUALA LAWAS,"Bandar Kuala Lawas, 98850 Lawas, Lawas, Sarawak",085-284870
4.953890,102.299690,KLINIK KESIHATAN ARING,"Aring, 18300 Gua Musang, Gua Musang, Kelantan",09-9286333
4.962366,115.505641,"KLINIK KESIHATAN SINDUMIN, SIPITANG","Pekan Sindumin, 89857 Sindumin, Sipitang, Sabah",087-811134
4.962370,115.505640,KLINIK KESIHATAN MERAPOK,"Merapok, Jalan Sindumin, 98850 Lawas, Lawas, Sarawak",087-811090
4.965594,100.652394,KLINIK KESIHATAN GUNUNG SEMANGGOL,"Jalan Kubu Gajah, Simpang Empat, 34400 Gunung Semanggol, Kerian, Perak",05-8921304
4.972490,102.206880,KLINIK KESIHATAN CHIKU 3,"Chiku 3, 18300 Gua Musang, Gua Musang, Kelantan",09-9285333
4.977000,100.801430,KLINIK KESIHATAN BATU KURAU,"Pekan Batu Kurau, 34500 Batu Kurau, Larut Matang, Perak",05-8880333
4.985617,100.582197,KLINIK KESIHATAN TELUK MEDAN,"Jalan Taiping, Kampung Teluk Medan, 34300 Bagan Serai, Kerian, Perak",05-7215655
4.998240,102.074550,KLINIK KESIHATAN JERAM TEKOH,"Jeram Tekoh, 18300 Gua Musang, Gua Musang, Kelantan",09-9126308
5.008047,100.540692,KLINIK KESIHATAN BAGAN SERAI,"Jalan Taiping, 34300 Bagan Serai, Kerian, Perak",05-7215355
5.008510,118.479169,"KLINIK KESIHATAN SILABUKAN SCHEME, LAHAD DATU","Kampung Silabukan, 91120 Silabukan, Lahad Datu, Sabah",089-821510
5.020217,103.302217,KLINIK KESIHATAN MERCHANG,"Lot 2943, Jalan Kuala Terengganu-Dungun, 21600 Marang, Marang, Terengganu",09-8321233
5.025387,118.883722,"KLINIK KESIHATAN TUNGKU, LAHAD DATU","Pekan Tungku, 91120 Tungku, Lahad Datu, Sabah",089-871125
5.025519,100.435694,KLINIK KESIHATAN KUALA KURAU,"Jalan Kuala Kurau, 34350 Kuala Kurau, Kerian, Perak",05-7277355
5.027745,118.316356,KLINIK KESIHATAN LAHAD DATU ,"Jalam Silam, Bandar Lahad Datu, 91120 Lahad Datu, Lahad Datu, Sabah",089-885110
5.049533,100.587297,KLINIK KESIHATAN ALOR PONGSU,"Jalan Stesen, 34300 Alor Pongsu, Kerian, Perak",05-7215855
5.071910,100.385360,KLINIK KESIHATAN TANJUNG PIANDANG,"Jalan Pantai Remis, 34250 Tanjung Piandang, Kerian, Perak",05-7256355
5.074560,100.478130,KLINIK KESIHATAN JALAN BARU,"Jalan Tanah Kebun, 34250 Kerian, Kerian, Perak",05-7163355
5.075211,103.011944,KLINIK KESIHATAN KUALA BERANG,"Lot 3893, Jalan Kuala Berang, 21700 Kuala Berang, Hulu Terengganu, Terengganu",09-6811597
5.077220,119.072500,"KLINIK KESIHATAN FELDA SAHABAT, LAHAD DATU","Desa Kencana,Felda Sahabat 16, 91120 Lahad Datu, Lahad Datu, Sabah",089-811912
5.107533,100.968000,KLINIK KESIHATAN LENGGONG,"Jalan Gerik, 33400 Lenggong, Hulu Perak, Perak",05-7677355
5.108931,100.438456,KLINIK KESIHATAN KEDAI EMPAT,"Jalan Sungai Kota, Kedai Empat, 34250 Tanjung Piandang, Kerian, Perak",05-7165155
5.109260,103.138780,KLINIK KESIHATAN PENGKALAN BERANGAN,"PT 1998, Jalan Marang, Wakaf Tapai, 21040 Jerong, Marang, Terengganu",09-6120073
5.115250,100.784442,KLINIK KESIHATAN REDANG PANJANG,"Jalan Batu Kurau, 34510 Ijok, Larut Matang, Perak",05-8802264
5.116775,103.048703,KLINIK KESIHATAN AJIL,"Lot 4048, Jalan Kuala Terengganu-Kuala Berang, 21800 Ajil, Hulu Terengganu, Terengganu",09-6861633
5.126260,100.512650,KLINIK KESIHATAN BANDAR BAHARU,"Bandar Baharu, 34950 Bandar Baharu, Bandar Baharu, Kedah",05-7178232
5.137667,103.084267,KLINIK KESIHATAN WAKAF TAPAI,"PT 3000, Jalan Kuala Terengganu, Kuala Berang, 21040 Alor Limbat, Marang, Terengganu",09-6801533
5.142550,102.048440,KLINIK KESIHATAN BERTAM BARU,"Bertam Baru, 18300 Gua Musang, Gua Musang, Kelantan",09-9126626
5.144090,100.590260,KLINIK KESIHATAN LUBUK BUNTAR,"Lubuk Buntar, Jalan Serdang, 34950 Bandar Baharu, Bandar Baharu, Kedah",04-4077320
5.148216,116.308656,"KLINIK KESIHATAN SOOK, KENINGAU","Jalan Tulid-Mansiat, 89007 Sook, Keningau, Sabah",087-724003
5.150278,100.422563,KLINIK KESIHATAN SUNGAI ACHEH,"Lot 1376, Mukim 10, Sungai Acheh, 14300 Nibong Tebal, Seberang Perai Selatan, Pulau Pinang",04-5981733
5.152521,102.339910,KLINIK KESIHATAN LEBIR,"Lebir, 18300 Gua Musang, Gua Musang, Kelantan",09-7416732
5.153064,102.936161,KLINIK KESIHATAN TENGKAWANG,"Lot 3814, 2825 & 3330, Jalan Kuala Berang Sungai Tong, 21700 Hulu Telemong, Hulu Terengganu, Terengganu",09-6818710
5.165570,100.767860,KLINIK KESIHATAN IJOK (FELDA),"Felda Ijok, 34120 Redang Panjang, Larut Matang, Perak",05-8803048
5.166602,100.492790,KLINIK KESIHATAN NIBONG TEBAL,"Lot 320, Mukim 17, 14300 Nibong Tebal, Seberang Perai Selatan, Pulau Pinang",04-5593135
5.167480,100.492850,KLINIK KESIHATAN BUKIT PANCHOR,"Lot 1866, Mukim 7, Jalan Bukit Panchor, 14300 Nibong Tebal, Seberang Perai Selatan , Pulau Pinang",04-5931679
5.200470,103.199078,KLINIK KESIHATAN BINJAI RENDAH,"Lot 4521/LOT6155, Jalan Kuala Berang, 21040 Bukit Payong, Marang, Terengganu",09-6192050
5.204433,103.205650,KLINIK KESIHATAN MARANG,"Lot 2012, Jalan Terengganu-Dungun, 21600 Rusila, Marang, Terengganu",09-6182216/ 09-61820
5.210280,116.835000,"KLINIK KESIHATAN PENANGAH, TONGOD","Pekan Penangah, 90200 Kinabatangan, Tongod, Sabah",087-721917
5.212117,100.615617,KLINIK KESIHATAN SERDANG,"Serdang, Jalan Pecah Batu, 9800 Serdang, Bandar Baharu, Kedah",04-4076100
5.214622,115.602629,"KLINIK KESIHATAN WESTON, BEAUFORT","Pekan Weston, Beaufort (d/a Pejabat Kesihatan Kawasan Beaufort, Peti Surat 101), 89807 Beaufort, Beaufort, Sabah",087-871201
5.216510,100.694740,KLINIK KESIHATAN SELAMA,"Pekan Selama, 34100 Selama, Larut Matang, Perak",05-8394355
5.219050,103.030697,KLINIK KESIHATAN TELEMONG,"Karak, Bentong, Pahang, 28620 Karak, Hulu Terengganu, Terengganu",09-2399972
5.221670,117.490000,"KLINIK KESIHATAN KUAMUT, TONGOD","Pekan Kuamut, 90200 Tongod, Kinabatangan, Sabah",089-232669
5.235867,103.099800,KLINIK KESIHATAN BUKIT PAYONG,"Jalan Kuala Terengganu Kuala Berang, 21400 Marang, Marang, Terengganu",09-6195805
5.259039,100.782123,KLINIK KESIHATAN SUNGAI BAYOR,"Pekan Sungai Bayor, 34110 Selama, Larut Matang, Perak",05-8394155
5.263499,116.002748,"KLINIK KESIHATAN MELALAP, TENOM","Pekan Melalap, 89007 Tenom, Tenom, Sabah",087-302409
5.274559,116.975082,KLINIK KESIHATAN TONGOD,"Pekan Tongod, 90200 Tongod, Tongod, Sabah",087-719004
5.281400,100.492140,KLINIK KESIHATAN BANDAR TASIK MUTIARA,"Lot 1051, Mukim 15, Lorong Tasik Mutiara 19/SS2, 14100 Bandar Tasik Mutiara, Seberang Perai Selatan, Pulau Pinang",04-5079855
5.286960,115.264410,KLINIK KESIHATAN WP LABUAN,"Peti Surat 81736, 87027 Labuan, Labuan, WP Labuan",087-411702
5.293600,101.058470,KLINIK KESIHATAN LAWIN,"Jalan Lenggong-Gerik, 33410 Lawin, Hulu Perak, Perak",05-7911907
5.299470,100.262050,KLINIK KESIHATAN BAYAN LEPAS,"Lot 1157, Mulim 12, 11900 Bayan Lepas, Barat Daya, Pulau Pinang",04-6435434
5.302980,115.369620,"KLINIK KESIHATAN MENUMBOK, KUALA PENYU","Pekan Menumbok, 89807 Menumbok, Kuala Penyu, Sabah",087-831066
5.307317,102.907417,KLINIK KESIHATAN SUNGAI TONG,"Lot 9679, Jalan Kuala Terengganu, Sungai Tong, 21500 Hulu Nerus, Setiu, Terengganu",09-8240833
5.309497,102.271411,KLINIK KESIHATAN LALOH,"Laloh, 18000 Kuala Krai, Kuala Krai, Kelantan",09-9668826
5.313722,103.134472,KLINIK KESIHATAN HILIRAN,"Lot 3056, Jalan Kemajuan, Padang Hiliran, 21100 Cabang Tiga, Kuala Terengganu, Terengganu",09-6232732
5.319757,100.279744,KLINIK KESIHATAN BAYAN BARU,"Jalan Tengah, 11950 Bayan Lepas, Barat Daya, Pulau Pinang",04-6425102
5.321639,103.081583,KLINIK KESIHATAN MANIR,"Lot 8085, Jalan Kelantan, 21200 Manir, Kuala Terengganu, Terengganu",09-6151447
5.322430,100.749280,KLINIK KESIHATAN MAHANG,"Lot 919, Jalan Mahang, 9800 Serdang, Kulim, Kedah",04-4041333
5.326288,116.422398,"KLINIK KESIHATAN TULID, KENINGAU","Jalan Tulid, Kg. Tulid, 89007 Sook, Keningau, Sabah",087-345002
5.326678,100.448307,KLINIK KESIHATAN BUKIT MINYAK,"PT 35, Mukim 14, Jalan Bukit Minyak, 14000 Bukit Mertajam, Seberang Perai Tengah , Pulau Pinang",04-5071355
5.336553,100.288166,KLINIK KESIHATAN BUKIT JAMBUL,"Blok D No 2759 & 2758 Tingkat Bawah Taman Bukit Jambul, 11900 Bukit Jambul, Timur Laut, Pulau Pinang",04-6448521
5.340861,116.159749,"KLINIK KESIHATAN MANSIAT, KENINGAU","Kg Manisat, 89007 Sook, Keningau, Sabah",087-391158
5.340885,116.159457,"KLINIK KESIHATAN PAGALUNGAN, NABAWAN ","Simpang Tiga Sungai Pensiangan Lolongan, Kampung Pagalungan, 89957 Pensiangan, Nabawan, Sabah",087-743001
5.341078,116.160092,"KLINIK KESIHATAN PENSIANGAN, NABAWAN","Pekan Pesiangan, 89957 Pesiangan, Nabawan, Sabah",087-366220
5.341080,116.159728,KLINIK KESIHATAN NABAWAN,"Pekan Nabawan, 89957 Pesiangan, Nabawan, Sabah",087-366199
5.343696,115.744953,KLINIK KESIHATAN MENDULONG,"Kampung Mendulong, 89857 Mendulong, Sipitang, Sabah",087 -721163
5.343742,115.745043,"KLINIK KESIHATAN PADAS DAMIT, BEAUFORT","Kampung Padas Damit, 89807 Beaufort, Beaufort, Sabah",087-209653
5.344180,100.297560,KLINIK KESIHATAN SUNGAI DUA ,"Lot 2544, Mukim 13, Sungai Dua, 11700 Gelugor, Timur Laut, Pulau Pinang",04-6422201
5.344222,103.107889,KLINIK KESIHATAN BUKIT TUNGGAL,"Lot 6859, Jalan Bukit Datu, Kg Bukit Tunggal, 21200 Kuala Nerus, Kuala Terengganu, Terengganu",09-6626275
5.360917,102.880667,KLINIK KESIHATAN SRI LANGKAP,"Lot 10494, Jalan Kuala Terengganu, 21500 Besut, Setiu, Terengganu",09-6571997
5.367420,100.557650,KLINIK KESIHATAN KULIM,"Jalan Hospital Lama, 9000 Kulim, Kulim, Kedah",04-4905533
5.375170,102.010220,KLINIK KESIHATAN DABONG,"Dadong, 18200 Kuala Krai, Kuala Krai, Kelantan",09-9602221
5.375722,103.116944,KLINIK KESIHATAN SEBERANG TAKIR,"Lot 15623, Jalan Telok Ketapang, Seberang Takir, 21300 Kuala Nerus, Kuala Terengganu, Terengganu",09-6663333
5.378320,100.537670,KLINIK KESIHATAN TAMAN SELASIH,"Lot 3302, Taman Selasih, 9000 Kulim, Kulim, Kedah",04-4917377
5.379460,100.473940,KLINIK KESIHATAN BERAPIT,"Lot 89, Mukim 17,  Berapit, 14000 Bukit Mertajam, Seberang Perai Tengah, Pulau Pinang",04-5395400
5.381480,102.242830,KLINIK KESIHATAN MANIK URAI,"Manek Urai, 18050 Kuala Krai, Kuala Krai, Kelantan",09-9665133
5.383767,100.388187,KLINIK KESIHATAN PRAI,"Lot 329, Mukim 1, Jalan Baru Perai, 13600 Perai, Seberang Perai Tengah, Pulau Pinang",04-3901477
5.389701,100.285453,KLINIK KESIHATAN AIR ITAM,"Lot 322, Seksyen 3, Jalan Bukit Bendera, 11500 Ayer Itam, Timur Laut, Pulau Pinang",04-8283355
5.393510,100.398500,KLINIK KESIHATAN SEBERANG JAYA,"Lot 340, Mukim 1, Jalan Perpustakaan, 13700 Seberang Jaya, Seberang Perai Tengah, Pulau Pinang",04-3900264/ 04-39018
5.397460,100.464310,KLINIK KESIHATAN KUBANG SEMANG,"Lot 807, Mukim 5, Kubang Semang, 14000 Bukit Mertajam, Seberang Perai Tengah, Pulau Pinang",04-5390654
5.402828,100.314595,KLINIK KESIHATAN JALAN PERAK,"Lot 174,175 & 648, Seksyen 2, Jalan Perak, Bandar Jelutong, 11600 Georgetown, Timur Laut, Pulau Pinang",04-2812033
5.404440,116.192780,KLINIK KESIHATAN BINGKOR,"Jalan Bunsit, 89007 Pekan Bingkor, Keningau, Sabah",087-391158
5.405750,100.282300,KLINIK KESIHATAN BANDAR BARU AIR ITAM,"Lot 10094 & 2584, Mukim 13, No 8 Jalan Angsana, 11500 Bandar Baru Air Itam, Timur Laut, Pulau Pinang",04-8266267
5.406780,100.368480,KLINIK KESIHATAN BUTTERWORTH,"Lot 1699, Seksyen 4, Jalan Bagan Luar, 12000 Butterworth, Seberang Perai Utara , Pulau Pinang",04-3233828
5.415100,100.326065,KLINIK KESIHATAN JALAN MACALISTER,"Lot 1762, Seksyen 12, Jalan Macalister, 10400 Georgetown, Timur Laut, Pulau Pinang",04-2289610
5.417920,100.412180,KLINIK KESIHATAN PERMATANG PAUH,"PWD 662, PT 67, Mukim 2, Jalan Sama Gagah, 13500 Permatang Pauh, Seberang Perai Tengah, Pulau Pinang",04-3981380
5.420120,100.336100,KLINIK KESIHATAN LEBUH MUNTRI ,"Jalan Lebuh Muntri, Georgetown, 10400 Georgetown, Timur Laut, Pulau Pinang",04-2620024
5.421320,100.389380,KLINIK KESIHATAN MAK MANDIN,"Lot 2882, Seksyen 3, Jalan Mak Mandin, 13400 Butterworth, Seberang Perai Utara, Pulau Pinang",04-3244685
5.424480,100.269040,KLINIK KESIHATAN BUKIT BENDERA,"Bukit Bendera, 11300 Bukit Bendera, Timur Laut, Pulau Pinang",04-8299406
5.426020,103.059010,KLINIK KESIHATAN BATU RAKIT,"Lot 8064, Jalan Batu Rakit, 21300 Kuala Nerus, Kuala Terengganu, Terengganu",09-6696133
5.427220,100.658260,KLINIK KESIHATAN KARANGAN,"Jalan Mahang, 9700 Karangan, Kulim, Kedah",04-4056261
5.430120,100.530500,KLINIK KESIHATAN LUNAS,"Jalan Ara Kuda, 9600 Lunas, Kulim, Kedah",04-4844355
5.435927,101.130051,KLINIK KESIHATAN POS KEMAR,"Pejabat Kesihatan Hulu Perak, Aras 3 Wisma Persekutuan Persekutuan, Jln Intan, 33300 Grik, Hulu Perak, Perak",05-7911335
5.441806,100.430726,KLINIK KESIHATAN SUNGAI DUA,"Lot 2349, Mukim 11, Sungai Dua, 13800 Butterworth, Seberang Perai Utara, Pulau Pinang",04-3564355
5.445019,101.913192,KLINIK KESIHATAN KUALA BALAH,"Kuala Balah, 17600 Kuala Balah, Jeli, Kelantan",09-9361233
5.446408,119.149733,"KLINIK KESIHATAN PULAU TAMBISAN, LAHAD DATU","Pekan Tambisan, 91120 Tambisan, Lahad Datu, Sabah",089-816001
5.447510,115.627110,"KLINIK KESIHATAN KOTA KLIAS, BEAUFORT","Kampung Kilas, 89807 Beaufort, Beaufort, Sabah",087-881143
5.455610,100.215010,KLINIK KESIHATAN TELUK BAHANG,"Lot 669, Mukim 2, 11050 Teluk Bahang, Barat Daya, Pulau Pinang",04-8851951
5.461979,100.279550,KLINIK KESIHATAN TANJUNG BUNGAH,"Lot 1835, Jalan Lembah Permai, 11200 Tanjung Bungah, Timur Laut, Pulau Pinang",04-8990953
5.462500,116.262140,"KLINIK KESIHATAN APIN-APIN, KENINGAU","Jalan Apin-Apin-Kota Kinabalu, Kg Kikiran, 89007 Apin-Apin, Keningau, Sabah",087-337 371
5.465300,102.801267,KLINIK KESIHATAN KAMPUNG RAHMAT,"Lot 6155, Jalan Kuala Terengganu, 24150 Chalok, Setiu, Terengganu",09-8240833
5.483562,100.491544,KLINIK KESIHATAN TASEK GELUGOR,"Lot 1944, Mukim 12, 13300 Tasek Gelugor, Seberang Perai Utara, Pulau Pinang",04-5735025
5.485890,102.222680,KLINIK KESIHATAN PAHI,"Pahi, 18000 Kuala Krai, Kuala Krai, Kelantan",09-9609343
5.502610,100.721600,KLINIK KESIHATAN MALAU,"Malau, 9020 Baling, Baling, Kedah",04-4061700
5.509320,118.291390,"KLINIK KESIHATAN SUKAU, KINABATANGAN","Pekan Sukau, 90200 Sukau, Kinabatangan, Sabah",089-816513
5.510390,100.553930,KLINIK KESIHATAN PADANG SERAI,"Jalan Lunas, 9400 Padang Serai, Kulim, Kedah",04-4855655
5.516630,100.433045,KLINIK KESIHATAN KEPALA BATAS,"Lot 1466, Mukim 6, Jalan Sheikh Mohd Tahir, 13200 Kepala Batas, Seberang Perai Utara, Pulau Pinang",04-5756755
5.526393,115.691497,"KLINIK KESIHATAN MEMBAKUT, BEAUFORT","Pekan Membakut, 89728 Membakut, Beaufort, Sabah",087-887541
5.529850,102.738600,KLINIK KESIHATAN BANDAR PERMAISURI,"Lot 800, Jalan Kuala Terengganu, Bandar Permaisuri, 22100 Tasek, Setiu, Terengganu",09-6097633
5.535350,100.380560,KLINIK KESIHATAN PENAGA,"Lot 3001, Mukim 5, 13110 Penaga, Seberang Prai Utara, Pulau Pinang",04-5791718
5.538634,102.204046,KLINIK KESIHATAN BANDAR KUALA KRAI,"Jalan Pintas, 18000 Kuala Krai, Kuala Krai, Kelantan",09-9605667
5.539394,115.854097,KLINIK KESIHATAN BONGAWAN,"Jln. Besar Pekan Bongawan, 89700 Bongawan, Papar, Sabah",087-861771
5.553100,100.634920,KLINIK KESIHATAN MERBAU PULAS,"Jalan Kuala Ketil, Merbau Pulas, 9410 Padang Serai, Kulim, Kedah",04-4163852
5.559569,101.883830,KLINIK KESIHATAN LUBOK BONGOR,"Lubok Bongor, 17600 Kuala Balah, Jeli, Kelantan",09-7416732
5.566600,101.107733,KLINIK KESIHATAN PLANG,"Jalan Gerik-Pengkalan Hulu, Kampung Plang, 33320 Gerik, Hulu Perak, Perak",05-7917635
5.570465,100.359467,KLINIK KESIHATAN KUALA MUDA,"Lot 1794, Mukim 1, Jalan Kuala Muda, 13110 Penaga, Seberang Perai Utara, Pulau Pinang",04-5793405
5.587500,100.374750,KLINIK KESIHATAN KOTA KUALA MUDA,"Jalan Pantai Merdeka, Jalan Sungai Mas, 8500 Kuala Muda, Kuala Muda, Kedah",04-4374225
5.592420,117.833870,"KLINIK KESIHATAN BUKIT GARAM, KINABATANGAN","Bukit Garam, 90200 Sandakan, Kinabatangan, Sabah",089-562151
5.595140,100.771000,KLINIK KESIHATAN TAWAR,"Jalan Kuala Ketil, 9310 Baling, Baling, Kedah",04-4766308
5.599239,118.122193,"KLINIK KESIHATAN SUAN LAMBA, SANDAKAN","Kampung Suan Lamba, 90500 Suan Lamba, Sandakan, Sabah",089-258009
5.605540,100.653350,KLINIK KESIHATAN KUALA KETIL,"Mukim Tawar, Jalan Kuala Ketil, 9300 Baling, Baling, Kedah",04-4163355
5.630000,117.120457,"KLINIK KESIHATAN TELUPID, BELURAN","Pekan Telupid, 89300 Telupid, Beluran, Sabah",089-521733
5.634850,100.833760,KLINIK KESIHATAN KUPANG,"Jalan Kuala Ketil, Kupang, 9200 Baling, Baling, Kedah",04-4766355
5.634910,100.478120,KLINIK KESIHATAN BAKAR ARANG,"Jalan Taman Intan, 8000 Sungai Petani, Kuala Muda, Kedah",04-4220294
5.638028,102.504586,KLINIK KESIHATAN PASIR AKAR,"PT 2345, Jalan Pasir Akar, 22010 Pasir Akar, Besut, Terengganu",09-6975373
5.647040,100.497740,KLINIK KESIHATAN BANDAR SUNGAI PETANI,"Jalan Badlishah, 8000 Sungai Petani, Kuala Muda, Kedah",04-4213333
5.672530,102.586730,KLINIK KESIHATAN JABI,"PT 2066, Jerteh, Jalan Kuala Terengganu, 22020 Jabi, Besut, Terengganu",09-6941288
5.689800,100.632722,KLINIK KESIHATAN BUKIT SELAMBAU,"Bukit Selambu, 8010 Sungai Petani, Kuala Muda, Kedah",04-4193312
5.704050,100.744370,KLINIK KESIHATAN PARIT PANJANG,"Mukim Teloi Kanan, 9120 Baling, Baling, Kedah",04-4761246
5.704542,101.733728,KLINIK KESIHATAN BATU MELINTANG,"Kampung Batu Melintang, 17520 Batu Melintang, Jeli, Kelantan",09-7416732
5.706230,100.996154,KLINIK KESIHATAN PENGKALAN HULU,"Jalan Pengkalan Hulu, 33100 Pengkalan Hulu, Hulu Perak, Perak",04-4778355
5.710186,102.210601,KLINIK KESIHATAN BATU 30,"Jalan Kuala Krai, 18500 Machang, Machang, Kelantan",09-9752355
5.715722,100.534861,KLINIK KESIHATAN SUNGAI LALANG,"Lot 15 & 16, Taman Lembah Permai, 8100 Sungai Lalang, Kuala Muda, Kedah",04-4594127
5.715940,102.155210,KLINIK KESIHATAN TEMANGAN,"Temangan, 18400 Machang, Machang, Kelantan",09-9752633
5.716630,101.747139,KLINIK KESIHATAN JELI,"Jeli, 17600 Jeli, Jeli, Kelantan",09-9440733
5.716767,117.437474,"KLINIK KESIHATAN TANGKARASON, BELURAN","Kampung Tangkarason, 90108 Tangkarason, Beluran, Sabah",088-892001
5.722667,100.409472,KLINIK KESIHATAN MERBOK,"Bandar Merbok, 8400 Merbok, Kuala Muda, Kedah",04-4572214
5.722920,100.506460,KLINIK KESIHATAN BEDONG,"Bedong, 8100 Bedong, Kuala Muda, Kedah",04-4583333
5.737004,102.493242,KLINIK KESIHATAN JERTEH,"Lot 43, Jalan Pasir Akar, 22000 Jerteh, Besut, Terengganu",09-6971433
5.743270,102.051920,KLINIK KESIHATAN GUAL IPOH,"Kg Gual Ipoh, 17500 Tanah Merah, Tanah Merah, Kelantan",09-9551949
5.744544,116.375559,"KLINIK KESIHATAN SUNSURON, TAMBUNAN","Jalan Tambunan-Kota Kinabalu, Simpang Kanan, SK Sunsuron, 89657 Tambunan, Tambunan, Sabah",087-773318
5.762390,102.597560,KLINIK KESIHATAN SRI MEDANG,"Lot 2017, Jalan Tembila, 22200 Tembila, Besut, Terengganu",09-6958386
5.772412,116.822082,"KLINIK KESIHATAN PAGINATAN, RANAU","Kampung Paginatan, 89307 Ranau, Ranau, Sabah",088-897203
5.778850,101.886500,KLINIK KESIHATAN AYER LANAS,"Ayer Lanas, 17700 Jeli, Jeli, Kelantan",09-9468333
5.779326,103.010782,KLINIK KESIHATAN PULAU REDANG,"Kampung Baru Pulau Redang, 21090 Kuala Terengganu, Kuala Terengganu, Terengganu",09-6307823
5.785260,117.768720,"KLINIK KESIHATAN ULU DUSUN, SANDAKAN","Kampung Ulu Dusun, Ulu Dusun, 90500 Tongod, Sandakan, Sabah",089-568826
5.788889,102.416944,KLINIK KESIHATAN GAAL,"Gaal, 16800 Pasir Puteh, Pasir Puteh, Kelantan",09-7867199
5.794840,100.898119,KLINIK KESIHATAN KAMPUNG LALANG,"Jalan Weng, 9100 Baling, Baling, Kedah",04-4732555
5.796940,102.564690,KLINIK KESIHATAN KAMPUNG RAJA,"Lot 763, Jalan Jerteh, 22200 Besut, Besut, Terengganu",09-6956341
5.799620,102.371610,KLINIK KESIHATAN JERAM,"Jeram, 16800 Pasir Puteh, Pasir Puteh, Kelantan",09-7867033
5.810990,101.982327,KLINIK KESIHATAN BATU GAJAH,"Batu 13, Jalan Tanah Merah- Jeli, 17510 Tanah Merah, Tanah Merah, Kelantan",09-9581033
5.813440,100.645750,KLINIK KESIHATAN JENIANG,"Jalan Jeniang, 8700 Gurun, Sik, Kedah",04-4641200
5.827006,102.567877,KLINIK KESIHATAN PULAU PERHENTIAN,"Lot 162, Kg Pulau Perhentian, 22300 Besut, Besut, Terengganu",09-6911733
5.827220,117.441940,"KLINIK KESIHATAN KUALA SAPI, BELURAN","Kampung Kuala Sapi, 90107 Sapi, Beluran, Sabah",088-552602
5.830504,116.036865,KLINIK KESIHATAN KINARUT ,"Jalan Spur, Pekan Kinarut, 89608 Kinarut, Papar, Sabah",088-754039
5.830814,102.225228,KLINIK KESIHATAN LABOK,"Labok, 18500 Machang, Machang, Kelantan",09-7878533
5.833770,102.540750,KLINIK KESIHATAN KUALA BESUT,"Lot 1415, Jalan Semarak, 22300 Kuala Besut, Besut, Terengganu",09-6919333
5.854020,100.459890,KLINIK KESIHATAN GUAR CHEMPEDAK,"Guar Campak, 8800 Guar Chempedak, Yan, Kedah",04-4682396
5.855361,102.005575,KLINIK KESIHATAN KEMAHANG,"Felda Kemahang, 17500 Tanah Merah, Tanah Merah, Kelantan",09-9581192
5.861339,118.102097,KLINIK KESIHATAN SANDAKAN ,"Kilometer 3.2, Jalan Utara, 90500 Sandakan, Sandakan, Sabah",089-225800
5.863541,102.338114,KLINIK KESIHATAN BANGGOL PA' ESAH,"Kampung Banggul Pa'Esah, 16800 Pasir Puteh, Pasir Puteh, Kelantan",09-7416732
5.868321,102.486734,KLINIK KESIHATAN CHERANG RUKU,"Semerak, 16700 Pasir Puteh, Pasir Puteh, Kelantan",09-6912333
5.872973,102.232240,KLINIK KESIHATAN PULAI CHONDONG,"Pulau Chondong, 16600 Machang, Machang, Kelantan",09-7878333
5.896667,102.332778,KLINIK KESIHATAN SELISING,"Selising, 16410 Pasir Puteh, Pasir Puteh, Kelantan",09-7891433
5.898883,116.046601,KLINIK KESIHATAN PUTATAN,"KM 11 Jalan Putatan, 89500 Donggongong, Putatan, Sabah",088-765704
5.901270,100.381500,KLINIK KESIHATAN SUNGAI LIMAU DALAM,"Sungai Limau Dalam, 6910 Yan, Yan, Kedah",04-7691607
5.914780,102.244047,KLINIK KESIHATAN KOK LANAS,"Km 25, Jalan Kuala Krai, 16450 Kota Bharu, Kota Bharu, Kelantan",09-7880900
5.915743,116.117597,KLINIK KESIHATAN PENAMPANG,"KM 12, Jalan Tambunan, WDT 29, 89500 Donggongon, Penampang, Sabah",088-717978
5.919025,102.187647,KLINIK KESIHATAN CHEKOK,"Chekok, 17060 Pasir Mas, Pasir Mas, Kelantan",09-7942333
5.935920,100.682836,KLINIK KESIHATAN KAMPONG BETONG,"Kampong Betong, 8200 Mukim Jeneri, Sik, Kedah",019-4776363
5.946239,116.090914,KLINIK KESIHATAN LUYANG ,"Jalan Lintas, Luyang, 88300 Kota Kinabalu, Kota Kinabalu, Sabah",088-715000
5.950150,117.328400,"KLINIK KESIHATAN NANGOH RUMEDI, BELURAN","Kampung Nangoh Rumedi, 90108 Nangoh, Beluran, Sabah",089-502003
5.956220,102.301020,KLINIK KESIHATAN MAHLIGAI,"Mahligai, 16400 Bachok, Bachok, Kelantan",09-7834213
5.957736,102.254891,KLINIK KESIHATAN KETEREH,"Ketereh, 16450 Kota Bharu, Kota Bharu, Kelantan",09-7886055
5.960015,100.362205,KLINIK KESIHATAN PERMATANG BULOH,"Permatang Buluh, 6800 Kota Sarang Semut, Yan, Kedah",04-4471451
5.965611,102.150903,KLINIK KESIHATAN TO'UBAN,"To`Uban, 17050 Pasir Mas, Pasir Mas, Kelantan",09-7941333
5.966510,117.982280,"KLINIK KESIHATAN SUNGAI MANILA, SANDAKAN","Kampung Sungai Manila, 90500 Sungai Manila, Sandakan, Sabah",089-531377
5.974590,100.403130,KLINIK KESIHATAN KOTA SARANG SEMUT,"Jalan Pendang, Kota Sarang Semut, 6800 Alor Setar, Kota Setar, Kedah",04-7691333
5.982220,116.531390,"KLINIK KESIHATAN BUNDU TUHAN, RANAU","Jalan Keranau, Kg Bundu Tuhan, 89308 Ranau, Ranau, Sabah",088-889505
5.985490,100.479180,KLINIK KESIHATAN PENDANG,"Jalan Sungai Tiang, 6700 Pendang, Pendang, Kedah",04-7596412
5.987870,116.142610,KLINIK KESIHATAN INANAM,"Jalan Kionsom, Pekan Inanam, 88300 Inanam, Kota Kinabalu, Sabah",088-421694
5.989270,102.347690,KLINIK KESIHATAN GUNONG,"Gunong, 16390 Bachok, Bachok, Kelantan",09-7834333
5.990717,116.579356,"KLINIK KESIHATAN KUNDASANG, RANAU","Jalan Kampung Lembah Permai, 89307 Ranau, Ranau, Sabah",088-889722
5.994381,102.200672,KLINIK KESIHATAN LUNDANG PAKU,"Jalan Dewa Beta, 15100 Kota Bharu, Kota Bharu, Kelantan",09-7964277
5.994649,102.188054,KLINIK KESIHATAN KANGKONG,"Jalan Pasir Mas Tanah Merah, 17040 Pasir Mas, Pasir Mas, Kelantan",09-7943155
5.995660,100.595880,KLINIK KESIHATAN SUNGAI TIANG,"Jalan Sungai Tiang, 6720 Pendang, Pendang, Kedah",04-7541135
6.000640,100.725320,KLINIK KESIHATAN LUBUK MERBAU,"Lubuk Merbau, 6300 Kuala Nerang, Padang Terap, Kedah",04-7520129
6.013674,101.972890,KLINIK KESIHATAN RANTAU PANJANG,"Jalan Lubok Stol, 17200 Rantau Panjang, Pasir Mas, Kelantan",09-7950333
6.017110,102.242478,KLINIK KESIHATAN CABANG 3 PEROL,"Cabang 3 Perol, 16010 Kota Bharu, Kota Bharu, Kelantan",09-7123335
6.020120,102.285140,KLINIK KESIHATAN PERINGAT,"Jalan Melor, 16400 Kota Bharu, Kota Bharu, Kelantan",09-7127433
6.025980,100.385900,KLINIK KESIHATAN SIMPANG EMPAT,"Simpang Empat, Mukim Kangkong, 6600 Alor Setar, Kota Setar, Kedah",04-7621526
6.027820,100.811000,KLINIK KESIHATAN GULAU,"Mukim Sik, 8210 Sik, Sik, Kedah",04-7522826
6.029609,102.018306,KLINIK KESIHATAN GUAL PERIOK,"Gual Periok, 17200 Pasir Mas, Pasir Mas, Kelantan",09-7416732
6.029743,116.158043,KLINIK KESIHATAN MENGGATAL,"Jalan Tuaran Lama, Pekan Menggatal, 88300 Kota Kinabalu, Kota Kinabalu, Sabah",088-493915
6.045570,102.140150,KLINIK KESIHATAN BANDAR PASIR MAS,"Bandar Pasir Mas, 17000 Pasir Mas, Pasir Mas, Kelantan",09-7901333
6.050403,116.280839,"KLINIK KESIHATAN KIULU, TUARAN","Jalan Keluk, 89207 Tamparuli, Tuaran, Sabah",088-782830
6.056170,102.399080,KLINIK KESIHATAN BACHOK,"Bachok, 16300 Bachok, Bachok, Kelantan",09-7789333
6.069967,102.207637,KLINIK KESIHATAN TENDONG,"Tedong, 17030 Pasir Mas, Pasir Mas, Kelantan",09-7198333
6.073180,116.800580,"KLINIK KESIHATAN PERANCANGAN, RANAU","Kg Perancangan, 89307 Ranau, Ranau, Sabah",088-666102
6.073680,102.364850,KLINIK KESIHATAN BERIS ,"Kubor Besar, 16300 Bachok, Bachok, Kelantan",09-7788633
6.084371,102.236489,KLINIK KESIHATAN WAKAF CHE YEH,"Jalan Pasir Mas Salor, 15100 Kota Bharu, Kota Bharu, Kelantan",09-7446333
6.089103,116.197780,KLINIK KESIHATAN TELIPOK,"Jalan Tuaran, Pekan Telipok, 88300 Telipok, Kota Kinabalu, Sabah",088-492057
6.089130,100.553700,KLINIK KESIHATAN KUBUR PANJANG,"Kubur Panjang, 6700 Pendang, Pendang, Kedah",04-7846355
6.090830,116.975000,"KLINIK KESIHATAN KAINGARAN, RANAU","Kampung Kaingaran, 89307 Ranau, Ranau, Sabah",088-894000
6.091269,102.272430,KLINIK KESIHATAN KUBANG KERIAN,"Jalan Istana Mahkota, 16150 Kota Bharu, Kota Bharu, Kelantan",09-7667330
6.096198,102.101019,KLINIK KESIHATAN MERANTI,"Jalan Bonggol Che Wan, Meranti, 17000 Pasir Mas, Pasir Mas, Kelantan",09-7975057
6.096940,100.361120,KLINIK KESIHATAN SIMPANG KUALA,"Simpang Kuala, 5400 Alor Setar, Kota Setar, Kedah",04-7720583
6.098720,100.301210,KLINIK KESIHATAN KUALA KEDAH,"Batu 6, Jalan Kuala Kedah, 5600 Alor Setar, Kota Setar, Kedah",04-7621526
6.105280,116.830280,"KLINIK KESIHATAN TIMBUA, RANAU","Kampung Timbua (Pejabat Kesihatan Ranau, Peti Surat 32), 89307 Ranau, Ranau, Sabah",088-959027
6.106050,102.372940,KLINIK KESIHATAN BALAI,"Balai, 16300 Bachok, Bachok, Kelantan",09-7767206
6.114020,102.306850,KLINIK KESIHATAN KEDAI LALAT,"Bandar Kota Jembal, Kedai Lalat, 16150 Kota Bharu, Kota Bharu, Kelantan",09-7666733
6.121003,100.399488,KLINIK KESIHATAN DATO KUMBAR,"Jalan Datuk Kumbar, 6500 Alor Setar, Kota Setar, Kedah",04-7306319
6.122430,102.202480,KLINIK KESIHATAN WAKAF BHARU,"Wakaf Baru, 16250 Tumpat, Tumpat, Kelantan",09-7196333
6.125518,102.242912,KLINIK KESIHATAN BANDAR KOTA BHARU,"Jalan Hospital, 15586 Kota Bharu, Kota Bharu, Kelantan",09-7475770
6.128631,102.350877,KLINIK KESIHATAN BERIS PANCHOR,"Beris Panchor, 16020 Tawar, Bachok, Kelantan",09-7788633
6.135600,116.268180,"KLINIK KESIHATAN TAMPARULI, TUARAN","W.D.T 59, 89275 Tamparuli, Tuaran, Sabah",088-782349
6.140580,100.668350,KLINIK KESIHATAN NAKA,"Naka, 6300 Kuala Nerang, Padang Terap, Kedah",04-7851229
6.141400,100.371050,KLINIK KESIHATAN BANDAR ALOR SETAR,"Blok A, Aras 1 Hospital Alor Setar (Hospital Lama), Lebuhraya Darulaman, 5100 Alor Setar, Kota Setar, Kedah",04-7308353
6.147089,102.238427,KLINIK KESIHATAN PENAMBANG,"Lot No 348-A Jalan Pantai Cahaya Bulan, Kg Penambang, 15350 Kota Bharu, Kota Bharu, Kelantan",09-7442760
6.147620,100.424970,KLINIK KESIHATAN LANGGAR,"Jalan Langgar, 6500 Langgar, Kota Setar, Kedah",04-7876648
6.162320,102.280630,KLINIK KESIHATAN PENGKALAN CHEPA,"Pengkalan Chepa, 16100 Kota Bharu, Kota Bharu, Kelantan",09-7714030
6.168010,100.518380,KLINIK KESIHATAN POKOK SENA,"782, 6400 Pokok Sena, Kota Setar, Kedah",04-7821355
6.172730,100.307840,KLINIK KESIHATAN ALOR JANGGUS,"Jalan Alor Janggus, 6250 Alor Setar, Kota Setar, Kedah",04-7301985
6.177484,102.232982,KLINIK KESIHATAN SUNGAI PINANG,"Sungai Pinang, Palekbang, 16040 Tumpat, Tumpat, Kelantan",09-7255133
6.182428,102.116375,KLINIK KESIHATAN BUNOHAN,"Jalan Pengkalan Kubur, 16200 Tumpat, Tumpat, Kelantan",09-7211033
6.187800,102.267420,KLINIK KESIHATAN BADANG,"Jalan Pantai Cahaya Bulan, 15350 Kota Bharu, Kota Bharu, Kelantan",09-7730333
6.193970,102.170410,KLINIK KESIHATAN BANDAR TUMPAT,"Bandar Tumpat, 16200 Tumpat, Tumpat, Kelantan",09-7255500
6.202778,100.477778,KLINIK KESIHATAN JALAN PUTRA,"Merong, 5150 Alor Setar, Kota Setar, Kedah",04-7355161
6.203930,100.416350,KLINIK KESIHATAN KEPALA BATAS,"Kepala Batas, 6200 Kepala Batas, Kubang Pasu, Kedah",04-7144820
6.215360,117.257670,"KLINIK KESIHATAN LINGKABAU, BELURAN","Kampung Lingkabau, Lingkabau, 90108 Beluran, Beluran, Sabah",089-886603
6.215414,102.111172,KLINIK KESIHATAN PENGKALAN KUBOR,"Pengkalan Kubor, 16200 Tumpat, Tumpat, Kelantan",09-7211570
6.220883,100.458138,KLINIK KESIHATAN BANAI,"Banai, 6000 Jitra, Kubang Pasu, Kedah",04-9171382
6.224971,100.654984,KLINIK KESIHATAN PEDU,"Pedu, 6300 Kuala Nerang, Padang Terap, Kedah",04-7868717
6.226110,116.448890,"KLINIK KESIHATAN TAGINAMBUR, KOTA BELUD","Batu 10, Jalan Ranau Bypass, 89158 Kota Belud, Kota Belud, Sabah",088-976437
6.240430,100.246380,KLINIK KESIHATAN AYER HITAM,"Ayer Hitam, 6150 Ayer Hitam, Kubang Pasu, Kedah",04-7942101
6.250000,117.366670,KLINIK KESIHATAN SUNGAI-SUNGAI,"Kampung Sungai-Sungai, 90107 Sungai Sungai, Beluran, Sabah",088-892002
6.255727,116.335881,"KLINIK KESIHATAN TENGHILAN, TUARAN","Jalan Kampung Tenghilan Tuaran, 89208 Tuaran, Tuaran, Sabah",088-981249
6.262644,100.195881,KLINIK KESIHATAN KUALA SANGLANG,"Kuala Sanglang, 2800 Kuala Sanglang, Kangar, Perlis",04-7940216
6.294814,99.737645,KLINIK KESIHATAN TEMONYONG,"Padang Maksirat, 7100 Langkawi, Langkawi, Kedah",04-9531133
6.297830,100.365990,KLINIK KESIHATAN TUNJANG,"Tunjang, 6000 Jitra, Kubang Pasu, Kedah",04-9291524
6.322890,99.847510,KLINIK KESIHATAN KUAH,"Jalan Air Hangat, 7000 Langkawi, Langkawi          , Kedah",04-9663490
6.336570,100.191470,KLINIK KESIHATAN SIMPANG EMPAT,"Simpang Empat, 2700 Simpang Empat, Kangar, Perlis",04-9807214
6.336580,100.191450,KLINIK KESIHATAN SIMPANG AMPAT,"Batu 22, Kampung Simpang Empat, 78000 Alor Gajah, Alor Gajah, Melaka",06-5529497
6.350120,99.731740,KLINIK KESIHATAN PADANG MATSIRAT,"Padang Mat Sirat, 7100 Langkawi          , Langkawi          , Kedah",04-9551355
6.396452,100.304901,KLINIK KESIHATAN KODIANG,"Kodiang, 6100 Kodiang, Kubang Pasu, Kedah",04-9250178
6.397391,100.134362,KLINIK KESIHATAN KUALA PERLIS,"Batu 7, Jalan Kuala Perlis, 2000 Kuala Perlis, Kangar, Perlis",04-9854259
6.400860,116.438669,"KLINIK KESIHATAN JAWI-JAWI, KOTA BELUD","Kg Jawi-Jawi, Jalan Bypass Kudat, 89150 Kota Belud, Kota Belud, Sabah",088-976001
6.410830,117.395830,"KLINIK KESIHATAN PAITAN, BELURAN","Pekan Paitan, 90108 Paitan, Beluran, Sabah",089-262005
6.422483,99.803810,KLINIK KESIHATAN AIR HANGAT,"Mukim Air Hangat, 7000 Langkawi          , Langkawi, Kedah",04-9591959
6.425149,100.429344,KLINIK KESIHATAN CHANGLOON,"Changloon, 6010 Changloon, Kubang Pasu, Kedah",04-9241277
6.432700,100.270510,KLINIK KESIHATAN ARAU,"Arau, 2600 Arau, Kangar, Perlis",04-9861218
6.439560,100.190590,KLINIK KESIHATAN KANGAR,"Jalan Kolam Air, 1000 Kangar, Kangar, Perlis",04-9778333
6.465500,100.273540,KLINIK KESIHATAN KAMPUNG GIAL,"Kampung Gial, 2500 Mata Air, Kangar, Perlis",04-9861177
6.503860,100.420440,KLINIK KESIHATAN LAKA TEMIN,"Laka Temin, 6050 Bukit Kayu Hitam, Kubang Pasu, Kedah",04-9221655
6.514870,100.230520,KLINIK KESIHATAN BESERI,"Jalan Bukit Keteri, 2400 Beseri, Kangar, Perlis",04-9381355
6.533017,116.704327,"KLINIK KESIHATAN LANGKON, KOTA MARUDU","Kampung Langkon, 89108 Kudat, Kota Marudu, Sabah",088-667320
6.533609,116.851851,"KLINIK KESIHATAN TANDEK, KOTA MARUDU","Pekan Tandek, Tandek, 89108 Kota Marudu, Kota Marudu, Sabah",088-661533/ 088-6618
6.642560,100.211600,KLINIK KESIHATAN KAKI BUKIT,"Kaki Bukit, 2200 Kali Bukit, Kangar, Perlis",04-9456237
6.656890,100.315860,KLINIK KESIHATAN PADANG BESAR,"KM 37, Jalan Padang Besar, 2500 Padang Besar, Kangar, Perlis",04-9490333
6.708837,117.031531,"KLINIK KESIHATAN DANDUN, PITAS","Kampung Dandun, Dandun, 89059 Kudat, Pitas, Sabah",088-687849
6.735830,116.800000,"KLINIK KESIHATAN NANGKA LOTONG, KUDAT","Kg Lotong, 89059 Lotong, Kudat, Sabah",088-637014
6.772220,116.703060,"KLINIK KESIHATAN TINANGOL, KUDAT","Kampung Tinangol, 89059 Tinangol, Kudat, Sabah",088-613702
6.774409,116.754545,"KLINIK KESIHATAN NARANDANG, KUDAT","Kampung Garau, Narandang, 89059 Kudat, Kudat, Sabah",088-896524
6.828390,117.164710,"KLINIK KESIHATAN BONGKOL, PITAS","Kampung Bongkol, Bongkol, 89059 Kudat, Pitas, Sabah",088-684940
6.840427,117.073789,"KLINIK KESIHATAN TELAGA, PITAS","Kampung Telaga, Telaga, Pitas, 89059 Kudat, Pitas, Sabah",088-638005
6.890101,116.711776,"KLINIK KESIHATAN SIKUATI, KUDAT","Pekan Sikuati, 89059 Sikuati, Kudat, Sabah",088-612381
6.901885,116.849227,"KLINIK KESIHATAN KARAKIT, KUDAT","Kampung Karakit, Pulau Banggi, 89059 Banggi, Kudat, Sabah",088-671526
6.901932,116.849094,"KLINIK KESIHATAN PANTAI, PITAS","Kampung Pantai, Pantai, 89059 Kudat, Pitas, Sabah",088-675008
6.902079,116.848849,"KLINIK KESIHATAN MATUNGGONG, KUDAT","Kg. Matunggong, 89059 Matunggong, Kudat, Sabah",088-621897
,,,,
,,,,
,,,,
,,,,
,,,,
,,,,
,,,,
,,,,
,,,,
,,,,
,,,,
,,,,
,,,,
,,,,
,,,,
,,,,
,,,,
,,,,
,,,,
,,,,
,,,,
,,,,
,,,,
,,,,
,,,,
,,,,
,,,,
,,,,
,,,,
,,,,
,,,,
,,,,
,,,,
,,,,
,,,,
,,,,
,,,,
,,,,
,,,,
,,,,
,,,,
,,,,
,,,,
,,,,
,,,,
